Id Database record;Name_site;Province;Country;Region;Laboratory;CRA;Error;Life;Method;Sample;Type;Specie;13C;15N;CN;Level;SU or UE;Period;Phase;Cultural_horizon;Periodization;Cultural info;LongGM;LatGM;Short reference;Bibliography
28;Abrigo da Pena de Mira;Distrito de Leiria;Portugal;West Mediterranean;ICEN-966;7810;120;Long;Conventional;Charcoal;n.d;n.d;;;;Brecha desmantelada;Shellmidden;Mesolithic;Early;Initial Mesolithic;Early Mesolithic;;-8.71667;39.53333;Araújo 2003;Modificada en BdD
83;Arapouco;Distrito de Lisboa;Portugal;West Mediterranean;Q-2492;7420;65;Short;n.d;Shell;Bulk;n.d;;;;Middle;;Mesolithic;Late;Castelnovian A;Late Mesolithic;83 trapeze / 11 triangle / 7 segment / 5 nd [Diniz y Nukushina 2012];-8.51006;38.31013;Carvalho 2009;Carvalho, A.F., 2009. O Mesolítico final em Portugal, in: Utrilla, P., Montes, L. (Eds.), El Mesolítico Geométrico En La Península Ibérica. Universidad de Zaragoza, Zaragoza, pp. 33–68.
84;Arapouco;Distrito de Lisboa;Portugal;West Mediterranean;Sac-1560;7200;130;Short;AMS;Bone;Singular;Human;-16.92;12;3.5;Unknown;Burial 2A;Mesolithic;Late;Castelnovian A;Late Mesolithic;83 trapeze / 11 triangle / 7 segment / 5 nd [Diniz y Nukushina 2012];-8.51006;38.31013;Guiry et al. 2016;Guiry, E.J., Hillier, M., Boaventura, R., Silva, A.M., Oosterbeek, L., Tomé, T., Valera, A., Cardoso, J.L., Hepburn, J.C., Richards, M.P., 2016. The transition to agriculture in south-western Europe: new isotopic insights from Portugal’s Atlantic coast. Antiquity 90, 604–616.
89;Armaçao Nova;Distrito de Faro;Portugal;West Mediterranean;ICEN-1227;7350;80;Short;Conventional;Shell;Bulk;n.d;;;;C4;C4b;Mesolithic;Late;Castelnovian A;Late Mesolithic;No geometrics (specific economical site);-8.96394;37.04459;Carvalho 2008;Carvalho, A.F., 2008. A Neolitização do Portugal Meridional: Os exemplos do Maciço Calcário Estremenho e do Algarve Ocidental, Promontoria Monográfica. Universidade do Algarbe, Faro.
90;Armaçao Nova;Distrito de Faro;Portugal;West Mediterranean;ICEN-1229;7500;60;Short;n.d;Shell;Bulk;n.d;;;;C2;c2e;Mesolithic;Late;Castelnovian A;Late Mesolithic;No geometrics (specific economical site);-8.96394;37.04459;Carvalho 2009;Carvalho, A.F., 2009. O Mesolítico final em Portugal, in: Utrilla, P., Montes, L. (Eds.), El Mesolítico Geométrico En La Península Ibérica. Universidad de Zaragoza, Zaragoza, pp. 33–68.
91;Armaçao Nova;Distrito de Faro;Portugal;West Mediterranean;ICEN-1230;7530;60;Short;n.d;Shell;Bulk;n.d;;;;C2;c2e;Mesolithic;Late;Castelnovian A;Late Mesolithic;No geometrics (specific economical site);-8.96394;37.04459;Carvalho 2009;Carvalho, A.F., 2009. O Mesolítico final em Portugal, in: Utrilla, P., Montes, L. (Eds.), El Mesolítico Geométrico En La Península Ibérica. Universidad de Zaragoza, Zaragoza, pp. 33–68.
92;Armaçao Nova;Distrito de Faro;Portugal;West Mediterranean;ICEN-1228;8120;60;Short;n.d;Shell;Bulk;n.d;;;;C4;C4b;Mesolithic;Late;Castelnovian A;Late Mesolithic;No geometrics [Soares / Tavares Muita gente];-8.96394;37.04459;Carvalho 2009;Carvalho, A.F., 2009. O Mesolítico final em Portugal, in: Utrilla, P., Montes, L. (Eds.), El Mesolítico Geométrico En La Península Ibérica. Universidad de Zaragoza, Zaragoza, pp. 33–68.
144;Baume Montclus;R. Languedoc-Roussillon;France;West Mediterranean;Beta-253160;6660;40;Short;AMS;Bone;Singular;Capreolus capreolus;;;;Layer 7;C7;Mesolithic;Late;Castelnovian A;Late Mesolithic;6 BG1 / 7 GB3;4.42;44.27;Binder et al. 2017;Binder, D., Battentier, J., Delhon, C., Sénépart, I., 2017. In pursuit of a missing transition: the Mesolithic and Neolithic radiocarbon chronology at La Font-aux-Pigeons rockshelter. Antiquity 91, 605–620. doi:10.15184/aqy.2017.65
145;Baume Montclus;R. Languedoc-Roussillon;France;West Mediterranean;Beta-253161;6990;40;Short;AMS;Bone;Singular;Sus scrofa;;;;Layer 10;C10B;Mesolithic;Late;Castelnovian A;Late Mesolithic;44 BG1;4.42;44.27;Binder et al. 2017;Binder, D., Battentier, J., Delhon, C., Sénépart, I., 2017. In pursuit of a missing transition: the Mesolithic and Neolithic radiocarbon chronology at La Font-aux-Pigeons rockshelter. Antiquity 91, 605–620. doi:10.15184/aqy.2017.65
146;Baume Montclus;R. Languedoc-Roussillon;France;West Mediterranean;Beta-253162;7170;50;Short;AMS;Bone;Singular;Wildlife / Fauna;;;;Layer 12A;C12A, carré E2;Mesolithic;Late;Castelnovian A;Late Mesolithic;53 BG1;4.42;44.27;Binder et al. 2017;Binder, D., Battentier, J., Delhon, C., Sénépart, I., 2017. In pursuit of a missing transition: the Mesolithic and Neolithic radiocarbon chronology at La Font-aux-Pigeons rockshelter. Antiquity 91, 605–620. doi:10.15184/aqy.2017.65
147;Baume Montclus;R. Languedoc-Roussillon;France;West Mediterranean;Beta-253163;7190;50;Short;AMS;Bone;Singular;Capreolus capreolus;;;;Layer 13B;C13B;Mesolithic;Late;Castelnovian A;Late Mesolithic;156 BG1 / 1 BG2;4.42;44.27;Binder et al. 2017;Binder, D., Battentier, J., Delhon, C., Sénépart, I., 2017. In pursuit of a missing transition: the Mesolithic and Neolithic radiocarbon chronology at La Font-aux-Pigeons rockshelter. Antiquity 91, 605–620. doi:10.15184/aqy.2017.65
148;Baume Montclus;R. Languedoc-Roussillon;France;West Mediterranean;Beta-253164;7320;50;Short;AMS;Bone;Singular;Wildlife / Fauna;;;;Layer 14B;C14B;Mesolithic;Late;Castelnovian A;Late Mesolithic;62 BG1;4.42;44.27;Binder et al. 2017;Binder, D., Battentier, J., Delhon, C., Sénépart, I., 2017. In pursuit of a missing transition: the Mesolithic and Neolithic radiocarbon chronology at La Font-aux-Pigeons rockshelter. Antiquity 91, 605–620. doi:10.15184/aqy.2017.65
149;Baume Montclus;R. Languedoc-Roussillon;France;West Mediterranean;Beta-253166;7670;50;Short;AMS;Bone;Singular;Wildlife / Fauna;;;;Layer 16;C16;Mesolithic;Early / Late;Mixed cultural horizons;Early / Late Mesolithic;34 BG2 / Denticulates;4.42;44.27;Binder et al. 2017;Binder, D., Battentier, J., Delhon, C., Sénépart, I., 2017. In pursuit of a missing transition: the Mesolithic and Neolithic radiocarbon chronology at La Font-aux-Pigeons rockshelter. Antiquity 91, 605–620. doi:10.15184/aqy.2017.65
150;Baume Montclus;R. Languedoc-Roussillon;France;West Mediterranean;Beta-255115;7770;50;Short;AMS;Bone;Singular;Cervus sp.;;;;Layer 15;C15 D3;Mesolithic;Early / Late;Mixed cultural horizons;Early / Late Mesolithic;9 BG2 / Denticulates;4.42;44.27;Binder et al. 2017;Binder, D., Battentier, J., Delhon, C., Sénépart, I., 2017. In pursuit of a missing transition: the Mesolithic and Neolithic radiocarbon chronology at La Font-aux-Pigeons rockshelter. Antiquity 91, 605–620. doi:10.15184/aqy.2017.65
151;Baume Montclus;R. Languedoc-Roussillon;France;West Mediterranean;Beta-255116;7800;50;Short;AMS;Bone;Singular;Wildlife / Fauna;;;;Layer 18B;C18B;Mesolithic;Early;Indeterminate;Early Mesolithic;Denticulates;4.42;44.27;Binder et al. 2017;Binder, D., Battentier, J., Delhon, C., Sénépart, I., 2017. In pursuit of a missing transition: the Mesolithic and Neolithic radiocarbon chronology at La Font-aux-Pigeons rockshelter. Antiquity 91, 605–620. doi:10.15184/aqy.2017.65
160;Abrigo grande de Bocas;Distrito Santarem;Portugal;West Mediterranean;ICEN-899;7490;110;Short;Conventional;Shell;Bulk;n.d;;;;;Camada 1;Mesolithic;Late;Castelnovian A;Late Mesolithic;47 trapeze / 4 triangle / 40 segment  [Carvalho 2008];-8.91273;39.32236;Zilhao 2000;Zilhão, J., 2000. From the mesolithic to the neolithic in the Iberian peninsular, in: Douglas, P.T. (Ed.), Europe’s First Farmers. The press syndicate of the University of Cambrigde, Cambridge, pp. 144–182.
170;Buraca Grande;Distrito de Leiria;Portugal;West Mediterranean;Sac-1459;6940;140;Short;Conventional;Shell;Bulk;n.d;;;;7C;;Mesolithic;Late;Mixed cultural horizons;Late Mesolithic;Presencia de material cerámico [No fiable];-8.48803;39.95715;Zilhao 2000;Zilhão, J., 2000. From the mesolithic to the neolithic in the Iberian peninsular, in: Douglas, P.T. (Ed.), Europe’s First Farmers. The press syndicate of the University of Cambrigde, Cambridge, pp. 144–182.
171;Buraca Grande;Distrito de Leiria;Portugal;West Mediterranean;Sac-1461;6850;210;Long;Conventional;Charcoal;Bulk;n.d;;;;7C;;Mesolithic;Late;Mixed cultural horizons;Late Mesolithic;Presencia de material cerámico [No fiable];-8.48803;39.95715;Zilhao 2000;Zilhão, J., 2000. From the mesolithic to the neolithic in the Iberian peninsular, in: Douglas, P.T. (Ed.), Europe’s First Farmers. The press syndicate of the University of Cambrigde, Cambridge, pp. 144–182.
172;Buraca Grande;Distrito de Leiria;Portugal;West Mediterranean;Gif-9940;7000;60;Long;Conventional;Charcoal;Bulk;n.d;;;;8A;BG K20 B/8 (z = 257);Mesolithic;Late;Castelnovian B;Late Mesolithic;1  triangle [dudoso];-8.48803;39.95715;Aubry et al. 1997;Aubry, T., Fontugne, M., Moura, M.-H., 1997. Les occupations de la grotte de Buraca Grande depuis le Paléolithique supérieur et les apports de la séquence holocène à l’étude de la transition Mésolithique/Néolithique au Portugal. Bull. Société Préhistorique Fr. 94, 182–190.
173;Cabeço da Amoreira;Distrito Santarem;Portugal;West Mediterranean;TO-11819R;7300;80;Short;AMS;Bone;Singular;Human;-16.4;12.7;;Burial CAM-00-01 / Jean Roche area (below shellmidden);Basal phase (Bicho’s proposal);Mesolithic;Late;Castelnovian B;Late Mesolithic;without archaeological remains relation;-8.48635;39.12782;Bicho et al. 2011;Bicho, N., Cascalheira, J., Marreiros, J., Pereira, T., 2011. The 2008-2010 excavations of Cabeço da Amoreira, Muge, Portugal. Mesolith. Misc. 21, 3–13.
174;Cabeço da Amoreira;Distrito Santarem;Portugal;West Mediterranean;UGAMS-7197;7450;30;Short;AMS;Shell;n.d;Scrobicularia plana;;;;Main pit / West cut  (below shellmidden)  / Mendes Correa area;;Mesolithic;Late;Castelnovian B;Late Mesolithic;without archaeological remains relation;-8.48635;39.12782;Bicho et al. 2011;Bicho, N., Cascalheira, J., Marreiros, J., Pereira, T., 2011. The 2008-2010 excavations of Cabeço da Amoreira, Muge, Portugal. Mesolith. Misc. 21, 3–13.
175;Cabeço da Amoreira;Distrito Santarem;Portugal;West Mediterranean;Wk-26797;7291;35;Short;AMS;Shell;n.d;Cerastodema edule;;;;Level 1b / Cairn context;Cairn phase (Bicho’s proposal);Mesolithic;Late;Castelnovian B;Late Mesolithic;without archaeological remains relation;-8.48635;39.12782;Bicho et al. 2011;Bicho, N., Cascalheira, J., Marreiros, J., Pereira, T., 2011. The 2008-2010 excavations of Cabeço da Amoreira, Muge, Portugal. Mesolith. Misc. 21, 3–13.
176;Cabeço da Amoreira;Distrito Santarem;Portugal;West Mediterranean;Wk-26798;7145;37;Short;AMS;Shell;n.d;Cerastodema edule;;;;Level 1b / Cairn context;Cairn phase (Bicho’s proposal) ;Mesolithic;Late;Castelnovian B;Late Mesolithic;without archaeological remains relation;-8.48635;39.12782;Bicho et al. 2011;Bicho, N., Cascalheira, J., Marreiros, J., Pereira, T., 2011. The 2008-2010 excavations of Cabeço da Amoreira, Muge, Portugal. Mesolith. Misc. 21, 3–13.
177;Cabeço da Amoreira;Distrito Santarem;Portugal;West Mediterranean;UGAMS-7196;6990;30;Long;AMS;Charcoal;Bulk;n.d;;;;Hearth 1 West cut  (below shellmidden) / Mendes Correa area;;Mesolithic;Late;Castelnovian B;Late Mesolithic;without archaeological remains relation;-8.48635;39.12782;Bicho et al. 2011;Bicho, N., Cascalheira, J., Marreiros, J., Pereira, T., 2011. The 2008-2010 excavations of Cabeço da Amoreira, Muge, Portugal. Mesolith. Misc. 21, 3–13.
178;Cabeço da Amoreira;Distrito Santarem;Portugal;West Mediterranean;Wk-28033;7479;48;Short;AMS;Shell;n.d;Scrobicularia plana;;;;Level 1 /West cut (shellmidden) / Mendes Correa area;Basal phase (Bicho’s proposal);Mesolithic;Late;Castelnovian B;Late Mesolithic;without archaeological remains relation;-8.48635;39.12782;Bicho et al. 2011;Bicho, N., Cascalheira, J., Marreiros, J., Pereira, T., 2011. The 2008-2010 excavations of Cabeço da Amoreira, Muge, Portugal. Mesolith. Misc. 21, 3–13.
179;Cabeço da Amoreira;Distrito Santarem;Portugal;West Mediterranean;Wk-28034;7370;48;Short;AMS;Shell;n.d;Scrobicularia plana;;;;Level 2 / West cut (shellmidden) / Mendes Correa area;Shellmidden phase 1 (Bicho’s proposal);Mesolithic;Late;Castelnovian B;Late Mesolithic;without archaeological remains relation;-8.48635;39.12782;Bicho et al. 2011;Bicho, N., Cascalheira, J., Marreiros, J., Pereira, T., 2011. The 2008-2010 excavations of Cabeço da Amoreira, Muge, Portugal. Mesolith. Misc. 21, 3–13.
180;Cabeço da Amoreira;Distrito Santarem;Portugal;West Mediterranean;Wk-30671;7417;34;Short;AMS;Shell;n.d;Scrobicularia plana;;;;Level 2 / West cut 2 (shellmidden) / Jean Roche area;Shellmidden phase 1 (Bicho’s proposal);Mesolithic;Late;Castelnovian B;Late Mesolithic;without archaeological remains relation;-8.48635;39.12782;Bicho et al. 2011;Bicho, N., Cascalheira, J., Marreiros, J., Pereira, T., 2011. The 2008-2010 excavations of Cabeço da Amoreira, Muge, Portugal. Mesolith. Misc. 21, 3–13.
181;Cabeço da Amoreira;Distrito Santarem;Portugal;West Mediterranean;Wk-30673;7406;32;Short;AMS;Shell;n.d;Scrobicularia plana;;;;Level 2 / North cut (shellmidden)  / Jean Roche area;Shellmidden phase 1 (Bicho’s proposal);Mesolithic;Late;Castelnovian B;Late Mesolithic;without archaeological remains relation;-8.48635;39.12782;Bicho et al. 2011;Bicho, N., Cascalheira, J., Marreiros, J., Pereira, T., 2011. The 2008-2010 excavations of Cabeço da Amoreira, Muge, Portugal. Mesolith. Misc. 21, 3–13.
182;Cabeço da Amoreira;Distrito Santarem;Portugal;West Mediterranean;Wk-28039;7395;48;Short;AMS;Shell;n.d;Scrobicularia plana;;;;Level 9 / West cut (shellmidden) / Mendes Correa area;Shellmidden phase 1 (Bicho’s proposal);Mesolithic;Late;Castelnovian B;Late Mesolithic;without archaeological remains relation;-8.48635;39.12782;Bicho et al. 2011;Bicho, N., Cascalheira, J., Marreiros, J., Pereira, T., 2011. The 2008-2010 excavations of Cabeço da Amoreira, Muge, Portugal. Mesolith. Misc. 21, 3–13.
183;Cabeço da Amoreira;Distrito Santarem;Portugal;West Mediterranean;Wk-28035;7395;48;Short;AMS;Shell;n.d;Scrobicularia plana;;;;Level 5 / West cut (shellmidden) / Mendes Correa area;Shellmidden phase 1 (Bicho’s proposal);Mesolithic;Late;Castelnovian B;Late Mesolithic;without archaeological remains relation;-8.48635;39.12782;Bicho et al. 2011;Bicho, N., Cascalheira, J., Marreiros, J., Pereira, T., 2011. The 2008-2010 excavations of Cabeço da Amoreira, Muge, Portugal. Mesolith. Misc. 21, 3–13.
184;Cabeço da Amoreira;Distrito Santarem;Portugal;West Mediterranean;Wk-28036;7251;48;Short;AMS;Shell;n.d;Scrobicularia plana;;;;Level 6 / West cut (shellmidden) / Mendes Correa area;Shellmidden phase 1 (Bicho’s proposal);Mesolithic;Late;Castelnovian B;Late Mesolithic;without archaeological remains relation;-8.48635;39.12782;Bicho et al. 2011;Bicho, N., Cascalheira, J., Marreiros, J., Pereira, T., 2011. The 2008-2010 excavations of Cabeço da Amoreira, Muge, Portugal. Mesolith. Misc. 21, 3–13.
185;Cabeço da Amoreira;Distrito Santarem;Portugal;West Mediterranean;Wk-28037;7307;48;Short;AMS;Shell;n.d;Scrobicularia plana;;;;Level 7 / West cut (shellmidden) / Mendes Correa area;Shellmidden phase 1 (Bicho’s proposal);Mesolithic;Late;Castelnovian B;Late Mesolithic;without archaeological remains relation;-8.48635;39.12782;Bicho et al. 2011;Bicho, N., Cascalheira, J., Marreiros, J., Pereira, T., 2011. The 2008-2010 excavations of Cabeço da Amoreira, Muge, Portugal. Mesolith. Misc. 21, 3–13.
186;Cabeço da Amoreira;Distrito Santarem;Portugal;West Mediterranean;Wk-28038;7365;49;Short;AMS;Shell;n.d;Scrobicularia plana;;;;Level 8 / West cut (shellmidden) / Mendes Correa area;Shellmidden phase 1 (Bicho’s proposal);Mesolithic;Late;Castelnovian B;Late Mesolithic;without archaeological remains relation;-8.48635;39.12782;Bicho et al. 2011;Bicho, N., Cascalheira, J., Marreiros, J., Pereira, T., 2011. The 2008-2010 excavations of Cabeço da Amoreira, Muge, Portugal. Mesolith. Misc. 21, 3–13.
187;Cabeço da Amoreira;Distrito Santarem;Portugal;West Mediterranean;Wk-28040;7305;48;Short;AMS;Shell;n.d;Scrobicularia plana;;;;Level 10 / West cut (shellmidden) / Mendes Correa area;Shellmidden phase 1 (Bicho’s proposal);Mesolithic;Late;Castelnovian B;Late Mesolithic;without archaeological remains relation;-8.48635;39.12782;Bicho et al. 2011;Bicho, N., Cascalheira, J., Marreiros, J., Pereira, T., 2011. The 2008-2010 excavations of Cabeço da Amoreira, Muge, Portugal. Mesolith. Misc. 21, 3–13.
188;Cabeço da Amoreira;Distrito Santarem;Portugal;West Mediterranean;Wk-28041;7384;48;Short;AMS;Shell;n.d;Scrobicularia plana;;;;Level 11 / West cut (shellmidden) / Mendes Correa area;Shellmidden phase 1 (Bicho’s proposal);Mesolithic;Late;Castelnovian B;Late Mesolithic;without archaeological remains relation;-8.48635;39.12782;Bicho et al. 2011;Bicho, N., Cascalheira, J., Marreiros, J., Pereira, T., 2011. The 2008-2010 excavations of Cabeço da Amoreira, Muge, Portugal. Mesolith. Misc. 21, 3–13.
189;Cabeço da Amoreira;Distrito Santarem;Portugal;West Mediterranean;Wk-28042;7323;48;Short;AMS;Shell;n.d;Scrobicularia plana;;;;Level 12 / West cut (shellmidden) / Mendes Correa area;Shellmidden phase 1 (Bicho’s proposal);Mesolithic;Late;Castelnovian B;Late Mesolithic;without archaeological remains relation;-8.48635;39.12782;Bicho et al. 2011;Bicho, N., Cascalheira, J., Marreiros, J., Pereira, T., 2011. The 2008-2010 excavations of Cabeço da Amoreira, Muge, Portugal. Mesolith. Misc. 21, 3–13.
190;Cabeço da Amoreira;Distrito Santarem;Portugal;West Mediterranean;Wk-28050;7377;33;Short;AMS;Shell;n.d;Scrobicularia plana;;;;Level 23 / West cut (shellmidden) / Mendes Correa area;Shellmidden phase 2 (Bicho’s proposal);Mesolithic;Late;Castelnovian B;Late Mesolithic;without archaeological remains relation;-8.48635;39.12782;Bicho et al. 2011;Bicho, N., Cascalheira, J., Marreiros, J., Pereira, T., 2011. The 2008-2010 excavations of Cabeço da Amoreira, Muge, Portugal. Mesolith. Misc. 21, 3–13.
191;Cabeço da Amoreira;Distrito Santarem;Portugal;West Mediterranean;Wk-28047;7376;34;Short;AMS;Shell;n.d;Scrobicularia plana;;;;Level 19 / West cut (shellmidden) / Mendes Correa area;Shellmidden phase 1 (Bicho’s proposal);Mesolithic;Late;Castelnovian B;Late Mesolithic;without archaeological remains relation;-8.48635;39.12782;Bicho et al. 2011;Bicho, N., Cascalheira, J., Marreiros, J., Pereira, T., 2011. The 2008-2010 excavations of Cabeço da Amoreira, Muge, Portugal. Mesolith. Misc. 21, 3–13.
192;Cabeço da Amoreira;Distrito Santarem;Portugal;West Mediterranean;Wk-28043;7273;34;Short;AMS;Shell;n.d;Scrobicularia plana;;;;Level 15 / West cut (shellmidden) / Mendes Correa area;Shellmidden phase 1 (Bicho’s proposal);Mesolithic;Late;Castelnovian B;Late Mesolithic;without archaeological remains relation;-8.48635;39.12782;Bicho et al. 2011;Bicho, N., Cascalheira, J., Marreiros, J., Pereira, T., 2011. The 2008-2010 excavations of Cabeço da Amoreira, Muge, Portugal. Mesolith. Misc. 21, 3–13.
193;Cabeço da Amoreira;Distrito Santarem;Portugal;West Mediterranean;Wk-28044;7311;34;Short;AMS;Shell;n.d;Scrobicularia plana;;;;Level 16 / West cut (shellmidden) / Mendes Correa area;Shellmidden phase 1 (Bicho’s proposal);Mesolithic;Late;Castelnovian B;Late Mesolithic;without archaeological remains relation;-8.48635;39.12782;Bicho et al. 2011;Bicho, N., Cascalheira, J., Marreiros, J., Pereira, T., 2011. The 2008-2010 excavations of Cabeço da Amoreira, Muge, Portugal. Mesolith. Misc. 21, 3–13.
194;Cabeço da Amoreira;Distrito Santarem;Portugal;West Mediterranean;Wk-28045;7315;35;Short;AMS;Shell;n.d;Scrobicularia plana;;;;Level 17 / West cut (shellmidden) / Mendes Correa area;Shellmidden phase 1 (Bicho’s proposal);Mesolithic;Late;Castelnovian B;Late Mesolithic;without archaeological remains relation;-8.48635;39.12782;Bicho et al. 2011;Bicho, N., Cascalheira, J., Marreiros, J., Pereira, T., 2011. The 2008-2010 excavations of Cabeço da Amoreira, Muge, Portugal. Mesolith. Misc. 21, 3–13.
195;Cabeço da Amoreira;Distrito Santarem;Portugal;West Mediterranean;Wk-28046;7368;39;Short;AMS;Shell;n.d;Scrobicularia plana;;;;Level 18 / West cut (shellmidden) / Mendes Correa area;Shellmidden phase 1 (Bicho’s proposal);Mesolithic;Late;Castelnovian B;Late Mesolithic;without archaeological remains relation;-8.48635;39.12782;Bicho et al. 2011;Bicho, N., Cascalheira, J., Marreiros, J., Pereira, T., 2011. The 2008-2010 excavations of Cabeço da Amoreira, Muge, Portugal. Mesolith. Misc. 21, 3–13.
196;Cabeço da Amoreira;Distrito Santarem;Portugal;West Mediterranean;Wk-28048;7445;33;Short;AMS;Shell;n.d;Scrobicularia plana;;;;Level 21 / West cut (shellmidden) / Mendes Correa area;Shellmidden phase 1 (Bicho’s proposal);Mesolithic;Late;Castelnovian B;Late Mesolithic;without archaeological remains relation;-8.48635;39.12782;Bicho et al. 2011;Bicho, N., Cascalheira, J., Marreiros, J., Pereira, T., 2011. The 2008-2010 excavations of Cabeço da Amoreira, Muge, Portugal. Mesolith. Misc. 21, 3–13.
197;Cabeço da Amoreira;Distrito Santarem;Portugal;West Mediterranean;Wk-28049;7193;33;Short;AMS;Shell;n.d;Scrobicularia plana;;;;Level 22 / West cut (shellmidden) / Mendes Correa area;Shellmidden phase 1 (Bicho’s proposal);Mesolithic;Late;Castelnovian B;Late Mesolithic;without archaeological remains relation;-8.48635;39.12782;Bicho et al. 2011;Bicho, N., Cascalheira, J., Marreiros, J., Pereira, T., 2011. The 2008-2010 excavations of Cabeço da Amoreira, Muge, Portugal. Mesolith. Misc. 21, 3–13.
198;Cabeço da Amoreira;Distrito Santarem;Portugal;West Mediterranean;Wk-30672;7360;34;Short;AMS;Shell;n.d;Scrobicularia plana;;;;Level 22 / West cut 2 (shellmidden)  / Jean Roche area;Shellmidden phase 2 (Bicho’s proposal);Mesolithic;Late;Castelnovian B;Late Mesolithic;without archaeological remains relation;-8.48635;39.12782;Bicho et al. 2011;Bicho, N., Cascalheira, J., Marreiros, J., Pereira, T., 2011. The 2008-2010 excavations of Cabeço da Amoreira, Muge, Portugal. Mesolith. Misc. 21, 3–13.
199;Cabeço da Amoreira;Distrito Santarem;Portugal;West Mediterranean;Wk-30674;7356;33;Short;AMS;Shell;n.d;Scrobicularia plana;;;;Level 22 / North cut (shellmidden)  / Jean Roche area;Shellmidden phase 2 (Bicho’s proposal);Mesolithic;Late;Castelnovian B;Late Mesolithic;without archaeological remains relation;-8.48635;39.12782;Bicho et al. 2011;Bicho, N., Cascalheira, J., Marreiros, J., Pereira, T., 2011. The 2008-2010 excavations of Cabeço da Amoreira, Muge, Portugal. Mesolith. Misc. 21, 3–13.
200;Cabeço da Amoreira;Distrito Santarem;Portugal;West Mediterranean;Hv-1349;7135;65;Long;Conventional;Charcoal;n.d;n.d;;;;;;Mesolithic;Late;Castelnovian B;Late Mesolithic;without archaeological remains relation;-8.48635;39.12782;Carvalho 2009;Carvalho, A.F., 2009. O Mesolítico final em Portugal, in: Utrilla, P., Montes, L. (Eds.), El Mesolítico Geométrico En La Península Ibérica. Universidad de Zaragoza, Zaragoza, pp. 33–68.
201;Cabeço da Amoreira;Distrito Santarem;Portugal;West Mediterranean;Beta-127450;6850;40;Short;AMS;Bone;Singular;Human;-16.5;11.9;;Burial 7 / Jean Roche area (Shellmidden);Burial phase 2 (Bicho’s proposal);Mesolithic;Late;Castelnovian B;Late Mesolithic;without archaeological remains relation;-8.48635;39.12782;Gibaja y Carvalho 2010;Gibaja Bao, J.F., Carvalho, A.F. (Eds.), 2010. Os últimos caçadores-recolectores e as primeiras comunidades productoras do sul da Península Ibérica e do norte de Marrocos. Universidade do Algarve, Faro.
202;Cabeço da Amoreira;Distrito Santarem;Portugal;West Mediterranean;Sac-2023;7260;60;Short;Conventional;Shell;Singular;Scrobicularia plana;;;;Level 1b / Jose Rolao area (Cairn context);Cairn phase (Bicho’s proposal);Mesolithic;Late;Castelnovian B;Late Mesolithic;without archaeological remains relation;-8.48635;39.12782;Gibaja y Carvalho 2010;Gibaja Bao, J.F., Carvalho, A.F. (Eds.), 2010. Os últimos caçadores-recolectores e as primeiras comunidades productoras do sul da Península Ibérica e do norte de Marrocos. Universidade do Algarve, Faro.
203;Cabeço da Amoreira;Distrito Santarem;Portugal;West Mediterranean;Sac-2079;7050;45;Short;Conventional;Shell;Singular;Cerastodema edule;;;;Level 1b / Jose Rolao area (Cairn context);Cairn phase (Bicho’s proposal);Mesolithic;Late;Castelnovian B;Late Mesolithic;without archaeological remains relation;-8.48635;39.12782;Gibaja y Carvalho 2010;Gibaja Bao, J.F., Carvalho, A.F. (Eds.), 2010. Os últimos caçadores-recolectores e as primeiras comunidades productoras do sul da Península Ibérica e do norte de Marrocos. Universidade do Algarve, Faro.
204;Cabeço da Amoreira;Distrito Santarem;Portugal;West Mediterranean;Sac-2080;7080;80;Short;Conventional;Shell;Singular;Scrobicularia plana;;;;Level 1b / Jose Rolao area (Cairn context);Cairn phase (Bicho’s proposal);Mesolithic;Late;Castelnovian B;Late Mesolithic;without archaeological remains relation;-8.48635;39.12782;Gibaja y Carvalho 2010;Gibaja Bao, J.F., Carvalho, A.F. (Eds.), 2010. Os últimos caçadores-recolectores e as primeiras comunidades productoras do sul da Península Ibérica e do norte de Marrocos. Universidade do Algarve, Faro.
208;Cabeço da Amoreira;Distrito Santarem;Portugal;West Mediterranean;TO-11862;6990;60;Short;AMS;Bone;n.d;n.d;-19.5;;;;;Mesolithic;Late;Castelnovian B;Late Mesolithic;without archaeological remains relation;-8.48635;39.12782;Gibaja y Carvalho 2010;Gibaja Bao, J.F., Carvalho, A.F. (Eds.), 2010. Os últimos caçadores-recolectores e as primeiras comunidades productoras do sul da Península Ibérica e do norte de Marrocos. Universidade do Algarve, Faro.
210;Cabeço da Amoreira;Distrito Santarem;Portugal;West Mediterranean;Sa-195;7030;350;Long;Conventional;Charcoal;n.d;n.d;;;;Level 39 Jean Roche area (Shellmidden);;Mesolithic;Late;Castelnovian B;Late Mesolithic;45 Trapezes / 411 Triangles / 38 Segments  [Roche 1970];-8.48635;39.12782;Gibaja y Carvalho 2010;Gibaja Bao, J.F., Carvalho, A.F. (Eds.), 2010. Os últimos caçadores-recolectores e as primeiras comunidades productoras do sul da Península Ibérica e do norte de Marrocos. Universidade do Algarve, Faro.
212;Cabeço da Amoreira;Distrito Santarem;Portugal;West Mediterranean;Wk-32143;7132;41;Short;AMS;Bone;Singular;Human;-16;13.9;3.3;Burial 2011-1 / Jean Roche area (below shellmidden);Basal phase (Bicho’s proposal);Mesolithic;Late;Castelnovian B;Late Mesolithic;without archaeological remains relation;-8.48635;39.12782;Bicho et al. 2011;Bicho, N., Cascalheira, J., Marreiros, J., Pereira, T., 2011. The 2008-2010 excavations of Cabeço da Amoreira, Muge, Portugal. Mesolith. Misc. 21, 3–13.
213;Cabeço da Amoreira;Distrito Santarem;Portugal;West Mediterranean;Wk-32142;6910;40;Short;AMS;Bone;Singular;Human;-15.7;12.9;3.3;Burial 2011-2 = Layer 2b / Jean Roche area (below shellmidden);Burial phase 2 (Bicho’s proposal);Mesolithic;Late;Castelnovian B;Late Mesolithic;without archaeological remains relation;-8.48635;39.12782;Bicho et al. 2011;Bicho, N., Cascalheira, J., Marreiros, J., Pereira, T., 2011. The 2008-2010 excavations of Cabeço da Amoreira, Muge, Portugal. Mesolith. Misc. 21, 3–13.
214;Cabeço da Amoreira;Distrito Santarem;Portugal;West Mediterranean;Wk-42844;6633;20;Short;AMS;Bone;Singular;Cervus elaphus;;;;Animal I / Layer 4;;Mesolithic;Late;Castelnovian B;Late Mesolithic;without archaeological remains relation;-8.48635;39.12782;Bicho et al. 2017;Bicho, N., Cascalheira, J., Gonçalves, C., Umbelino, C., García Rivero, D., André, L., 2017. Resilience, replacement and acculturation in the Mesolithic/Neolithic transition: The case of Muge, central Portugal. Quat. Int.
215;Cabeço da Amoreira;Distrito Santarem;Portugal;West Mediterranean;Wk-42841;7051;22;Long;AMS;Charcoal;Singular;Pinus sp.;;;;Main area Layer W / Bicho area;;Mesolithic;Late;Castelnovian B;Late Mesolithic;without archaeological remains relation;-8.48635;39.12782;Bicho et al. 2017;Bicho, N., Cascalheira, J., Gonçalves, C., Umbelino, C., García Rivero, D., André, L., 2017. Resilience, replacement and acculturation in the Mesolithic/Neolithic transition: The case of Muge, central Portugal. Quat. Int.
216;Cabeço da Amoreira;Distrito Santarem;Portugal;West Mediterranean;Wk-40699;7281;20;Short;AMS;Shell;Singular;Cerastodema edule;;;;Main area / Layer Z / Bicho area;;Mesolithic;Late;Castelnovian B;Late Mesolithic;without archaeological remains relation;-8.48635;39.12782;Bicho et al. 2017;Bicho, N., Cascalheira, J., Gonçalves, C., Umbelino, C., García Rivero, D., André, L., 2017. Resilience, replacement and acculturation in the Mesolithic/Neolithic transition: The case of Muge, central Portugal. Quat. Int.
217;Cabeço da Amoreira;Distrito Santarem;Portugal;West Mediterranean;Wk-40700;7197;25;Long;AMS;Charcoal;Singular;n.d;;;;Main area / Layer Z / Bicho area;;Mesolithic;Late;Castelnovian B;Late Mesolithic;without archaeological remains relation;-8.48635;39.12782;Bicho et al. 2017;Bicho, N., Cascalheira, J., Gonçalves, C., Umbelino, C., García Rivero, D., André, L., 2017. Resilience, replacement and acculturation in the Mesolithic/Neolithic transition: The case of Muge, central Portugal. Quat. Int.
218;Cabeço da Arruda;Distrito Santarem;Portugal;West Mediterranean;TO-10218;6630;60;Short;AMS;Bone;Singular;Human;-17.1;;;Base;CA-00-01  (89 Roche);Mesolithic;Late;Castelnovian n.d;Late Mesolithic;;-8.48635;39.12782;Gibaja y Carvalho 2010;Gibaja Bao, J.F., Carvalho, A.F. (Eds.), 2010. Os últimos caçadores-recolectores e as primeiras comunidades productoras do sul da Península Ibérica e do norte de Marrocos. Universidade do Algarve, Faro.
219;Cabeço da Arruda;Distrito Santarem;Portugal;West Mediterranean;TO-10217;6620;60;Short;AMS;Bone;Singular;Human;-18.1;10.5;3.4;;CA-00-01 (89 Roche);Mesolithic;Late;Castelnovian n.d;Late Mesolithic;;-8.52185;39.1868;Carvalho 2008;Carvalho, A.F., 2008. A Neolitização do Portugal Meridional: Os exemplos do Maciço Calcário Estremenho e do Algarve Ocidental, Promontoria Monográfica. Universidade do Algarbe, Faro.
220;Cabeço da Arruda;Distrito Santarem;Portugal;West Mediterranean;Beta-127451;7550;100;Short;AMS;Bone;Singular;Human;-19.9;;;0.80 m from bottom;Burial 6 (layer 85-89 Roche);Mesolithic;Late;Castelnovian n.d;Late Mesolithic;;-8.52185;39.1868;Carvalho 2009;Carvalho, A.F., 2009. O Mesolítico final em Portugal, in: Utrilla, P., Montes, L. (Eds.), El Mesolítico Geométrico En La Península Ibérica. Universidad de Zaragoza, Zaragoza, pp. 33–68.
221;Cabeço da Arruda;Distrito Santarem;Portugal;West Mediterranean;TO-10216;7040;60;Short;AMS;Bone;Singular;Human;-17.9;10.6;3.2;Profile clean;Burial CA-00-02;Mesolithic;Late;Castelnovian n.d;Late Mesolithic;;-8.52185;39.1868;Carvalho 2009;Carvalho, A.F., 2009. O Mesolítico final em Portugal, in: Utrilla, P., Montes, L. (Eds.), El Mesolítico Geométrico En La Península Ibérica. Universidad de Zaragoza, Zaragoza, pp. 33–68.
222;Cabeço da Arruda;Distrito Santarem;Portugal;West Mediterranean;TO-10215;7410;70;Long;n.d;Charcoal;n.d;n.d;;;;Lower;;Mesolithic;Late;Castelnovian n.d;Late Mesolithic;;-8.52185;39.1868;Carvalho 2009;Carvalho, A.F., 2009. O Mesolítico final em Portugal, in: Utrilla, P., Montes, L. (Eds.), El Mesolítico Geométrico En La Península Ibérica. Universidad de Zaragoza, Zaragoza, pp. 33–68.
223;Cabeço da Arruda;Distrito Santarem;Portugal;West Mediterranean;TO-354;6970;60;Short;AMS;Bone;Singular;Human;-19;12.2;;Basal sand (Layer D);Burial A (89 Roche);Mesolithic;Late;Castelnovian n.d;Late Mesolithic;;-8.52185;39.1868;Zilhao 2000;Zilhão, J., 2000. From the mesolithic to the neolithic in the Iberian peninsular, in: Douglas, P.T. (Ed.), Europe’s First Farmers. The press syndicate of the University of Cambrigde, Cambridge, pp. 144–182.
224;Cabeço da Arruda;Distrito Santarem;Portugal;West Mediterranean;TO-355;6780;80;Short;AMS;Bone;Singular;Human;-18.9;10.3;;Basal sand (Layer D);Burial D (89 Roche);Mesolithic;Late;Castelnovian n.d;Late Mesolithic;;-8.52185;39.1868;Zilhao 2000;Zilhão, J., 2000. From the mesolithic to the neolithic in the Iberian peninsular, in: Douglas, P.T. (Ed.), Europe’s First Farmers. The press syndicate of the University of Cambrigde, Cambridge, pp. 144–182.
225;Cabeço da Arruda;Distrito Santarem;Portugal;West Mediterranean;TO-356;6360;80;Short;AMS;Bone;Singular;Human;-15.3;12.5;;Upper layers;Burial N (layer 3-6 Roche);Mesolithic;Late;Castelnovian n.d;Late Mesolithic;;-8.52185;39.1868;Zilhao 2000;Zilhão, J., 2000. From the mesolithic to the neolithic in the Iberian peninsular, in: Douglas, P.T. (Ed.), Europe’s First Farmers. The press syndicate of the University of Cambrigde, Cambridge, pp. 144–182.
226;Cabeço da Arruda;Distrito Santarem;Portugal;West Mediterranean;"TO-359 
TO-359a";6960;60;Short;AMS;Bone;Singular;Human;-17.2;11.8;;Basal sand (Layer D);Burial 42 (89 Roche);Mesolithic;Late;Castelnovian n.d;Late Mesolithic;;-8.52185;39.1868;Zilhao 2000;Zilhão, J., 2000. From the mesolithic to the neolithic in the Iberian peninsular, in: Douglas, P.T. (Ed.), Europe’s First Farmers. The press syndicate of the University of Cambrigde, Cambridge, pp. 144–182.
227;Cabeço da Arruda;Distrito Santarem;Portugal;West Mediterranean;TO-360;6990;110;Short;Conventional;Bone;Singular;Human;-17.7;11.2;;Basal sand (Layer D);Burial 3 (89 Roche);Mesolithic;Late;Castelnovian n.d;Late Mesolithic;;-8.52185;39.1868;Zilhao 2000;Zilhão, J., 2000. From the mesolithic to the neolithic in the Iberian peninsular, in: Douglas, P.T. (Ed.), Europe’s First Farmers. The press syndicate of the University of Cambrigde, Cambridge, pp. 144–182.
228;Cabeço da Arruda;Distrito Santarem;Portugal;West Mediterranean;Ua-46274;7200;41;Short;Conventional;Bone;Singular;Human;-17.4;10.6;3.1;0.3 from bottom;Burial 9 (layer 87-89 Roche);Mesolithic;Late;Castelnovian n.d;Late Mesolithic;;-8.52185;39.1868;Peyroteo-Stjerna 2016;Peyroteo-Stjerna , R., 2016. Death in the Mesolithic or the Mortuary Practices of the Last Hunter-Gatherers of the South-Western Iberian Peninsula, 7th–6th Millennium BCE, Occasional papers of Archaeology. University of Uppsala.
229;Cabeço da Arruda;Distrito Santarem;Portugal;West Mediterranean;Ua-46275;7263;41;Short;Conventional;Bone;Singular;Human;-17.4;11.4;3.2;0.25 from bottom;Burial 10 (89 Roche);Mesolithic;Late;Castelnovian n.d;Late Mesolithic;;-8.52185;39.1868;Peyroteo-Stjerna 2016;Peyroteo-Stjerna , R., 2016. Death in the Mesolithic or the Mortuary Practices of the Last Hunter-Gatherers of the South-Western Iberian Peninsula, 7th–6th Millennium BCE, Occasional papers of Archaeology. University of Uppsala.
230;Cabeço da Arruda;Distrito Santarem;Portugal;West Mediterranean;Ua-46273;7198;40;Short;Conventional;Bone;Singular;Human;-17.3;10.1;3.1;1.20 m. from bottom;Burial 3 (layer 84-89 Roche);Mesolithic;Late;Castelnovian n.d;Late Mesolithic;;-8.52185;39.1868;Peyroteo-Stjerna 2016;Peyroteo-Stjerna , R., 2016. Death in the Mesolithic or the Mortuary Practices of the Last Hunter-Gatherers of the South-Western Iberian Peninsula, 7th–6th Millennium BCE, Occasional papers of Archaeology. University of Uppsala.
231;Cabeço da Arruda;Distrito Santarem;Portugal;West Mediterranean;Ua-47976;7261;45;Short;Conventional;Bone;Singular;Human;-17.1;9.7;3.1;bottom (Layer D);Burial 4;Mesolithic;Late;Castelnovian n.d;Late Mesolithic;;-8.52185;39.1868;Peyroteo-Stjerna 2016;Peyroteo-Stjerna , R., 2016. Death in the Mesolithic or the Mortuary Practices of the Last Hunter-Gatherers of the South-Western Iberian Peninsula, 7th–6th Millennium BCE, Occasional papers of Archaeology. University of Uppsala.
232;Cabeço da Arruda;Distrito Santarem;Portugal;West Mediterranean;Ua-47975;7116;44;Short;Conventional;Bone;Singular;Human;16.7;9.5;3.1;0.85 / 0.95 m. from bottom;Burial 2  (layer 84-89 Roche);Mesolithic;Late;Castelnovian n.d;Late Mesolithic;;-8.52185;39.1868;Peyroteo-Stjerna 2016;Peyroteo-Stjerna , R., 2016. Death in the Mesolithic or the Mortuary Practices of the Last Hunter-Gatherers of the South-Western Iberian Peninsula, 7th–6th Millennium BCE, Occasional papers of Archaeology. University of Uppsala.
233;Cabeço da Arruda;Distrito Santarem;Portugal;West Mediterranean;Ua-46272;7166;41;Short;Conventional;Bone;Singular;Human;-16.6;11.2;3.1;1.40 m from bottom;Burial 1 (layer 84-89 Roche);Mesolithic;Late;Castelnovian n.d;Late Mesolithic;;-8.52185;39.1868;Peyroteo-Stjerna 2016;Peyroteo-Stjerna , R., 2016. Death in the Mesolithic or the Mortuary Practices of the Last Hunter-Gatherers of the South-Western Iberian Peninsula, 7th–6th Millennium BCE, Occasional papers of Archaeology. University of Uppsala.
234;Cabeço da Arruda;Distrito Santarem;Portugal;West Mediterranean;AA-101343;7351;70;Short;AMS;Bone;Singular;Human;-16.6;10.9;3.3;0.80 m. from bottom;Burial 6  (layer 85-89 Roche);Mesolithic;Late;Castelnovian n.d;Late Mesolithic;;-8.52185;39.1868;Jackes et al. 2014;Jackes, M., Lubell, D., Cunha, M.., 2014. Redating a Mesolithic skeleton from Cabeço da Arruda, Muge, Portugal. Mesolith. Misc. 22:2, 40–44.
235;Cabeço das Amoreiras;Distrito de Setúbal;Portugal;West Mediterranean;Beta-125110;7230;40;Short;AMS;Bone;Singular;Human;-19;9.5;2.9;Level A (based on TFM p.30);Burial 5 (layer 4);Mesolithic;Late;Castelnovian C;Late Mesolithic;10 trapeze / 15 triangle / 44 segment  [Nukushina TFM 2012] * no fiable;-8.39988;38.22594;Carvalho 2009;Carvalho, A.F., 2009. O Mesolítico final em Portugal, in: Utrilla, P., Montes, L. (Eds.), El Mesolítico Geométrico En La Península Ibérica. Universidad de Zaragoza, Zaragoza, pp. 33–68.
236;Cabeço das Amoreiras;Distrito de Setúbal;Portugal;West Mediterranean;QAM-85B2b;6370;70;Short;Conventional;Shell;Bulk;n.d;;;;Level B (based on TFM p.30);camada 2a;Mesolithic;Late;Castelnovian C;Late Mesolithic;3 trapeze / 11 triangle / 36 segment  [Nukushina TFM 2012];-8.39988;38.22594;Carvalho 2009;Carvalho, A.F., 2009. O Mesolítico final em Portugal, in: Utrilla, P., Montes, L. (Eds.), El Mesolítico Geométrico En La Península Ibérica. Universidad de Zaragoza, Zaragoza, pp. 33–68.
237;Cabeço das Amoreiras;Distrito de Setúbal;Portugal;West Mediterranean;QAM-85B2a;5990;75;Long;AMS;Charcoal;Bulk;n.d;;;;Level B (based on TFM p.30);camada 2b;Mesolithic;Late;Castelnovian C;Late Mesolithic;3 trapeze / 11 triangle / 36 segment  [Nukushina TFM 2012];-8.39988;38.22594;Zilhao 2000;Zilhão, J., 2000. From the mesolithic to the neolithic in the Iberian peninsular, in: Douglas, P.T. (Ed.), Europe’s First Farmers. The press syndicate of the University of Cambrigde, Cambridge, pp. 144–182.
238;Cabeço das Amoreiras;Distrito de Setúbal;Portugal;West Mediterranean;Ua-47973;6484;39;Short;AMS;Bone;Singular;Human;-20;7.6;3.3;Level A (Z = 130);Burial 4 (layer 4);Mesolithic;Late;Castelnovian C;Late Mesolithic;10 trapeze / 15 triangle / 44 segment  [Nukushina TFM 2012];-8.39988;38.22594;Peyroteo-Stjerna 2016;Peyroteo-Stjerna , R., 2016. Death in the Mesolithic or the Mortuary Practices of the Last Hunter-Gatherers of the South-Western Iberian Peninsula, 7th–6th Millennium BCE, Occasional papers of Archaeology. University of Uppsala.
239;Cabeço das Amoreiras;Distrito de Setúbal;Portugal;West Mediterranean;Ua-47974;6645;42;Short;AMS;Bone;Singular;Human;-20;8.2;3.3;Level C (Z = 120 / 140);Burial 7 (layer 4);Mesolithic;Late;Castelnovian C;Late Mesolithic;2 triangle / 15 segment  [Nukushina TFM 2012];-8.39988;38.22594;Peyroteo-Stjerna 2016;Peyroteo-Stjerna , R., 2016. Death in the Mesolithic or the Mortuary Practices of the Last Hunter-Gatherers of the South-Western Iberian Peninsula, 7th–6th Millennium BCE, Occasional papers of Archaeology. University of Uppsala.
240;Cabeço do Pez;Distrito de Setúbal;Portugal;West Mediterranean;Beta-125109;6760;40;Short;AMS;Bone;Singular;Human;-22.6;;;Layer 4 (Santos et al. 1974);Burial 4, Burial area A;Mesolithic;Late;Castelnovian B;Late Mesolithic;5 trapeze / 7 triangle / 1 segment  [Santos et al. 1974];-8.42844;38.3528;Carvalho 2008;Carvalho, A.F., 2008. A Neolitização do Portugal Meridional: Os exemplos do Maciço Calcário Estremenho e do Algarve Ocidental, Promontoria Monográfica. Universidade do Algarbe, Faro.
241;Cabeço do Pez;Distrito de Setúbal;Portugal;West Mediterranean;Q-2496;6050;70;Short;Conventional;Shell;Bulk;n.d;;;;Layer 3 (Santos et al. 1974);Middle;Mesolithic;Late;Castelnovian C;Late Mesolithic;5 trapeze / 5 triangle / 13 segment  [Santos et al. 1974];-8.42844;38.3528;Zilhao 2000;Zilhão, J., 2000. From the mesolithic to the neolithic in the Iberian peninsular, in: Douglas, P.T. (Ed.), Europe’s First Farmers. The press syndicate of the University of Cambrigde, Cambridge, pp. 144–182.
242;Cabeço do Pez;Distrito de Setúbal;Portugal;West Mediterranean;Q-2497;6350;80;Short;Conventional;Shell;Bulk;n.d;;;;Layer 3 (Santos et al. 1974);Middle;Mesolithic;Late;Castelnovian C;Late Mesolithic;5 trapeze / 5 triangle / 13 segment  [Santos et al. 1974];-8.42844;38.3528;Zilhao 2000;Zilhão, J., 2000. From the mesolithic to the neolithic in the Iberian peninsular, in: Douglas, P.T. (Ed.), Europe’s First Farmers. The press syndicate of the University of Cambrigde, Cambridge, pp. 144–182.
243;Cabeço do Pez;Distrito de Setúbal;Portugal;West Mediterranean;Sac-1558;6740;100;Short;AMS;Bone;Singular;Human;-19.3;;;Layer 4 (Santos et al. 1974);Burial 4, Burial area A;Mesolithic;Late;Castelnovian B;Late Mesolithic;5 trapeze / 7 triangle / 1 segment  [Santos et al. 1974];-8.42844;38.3528;Carvalho 2008;Carvalho, A.F., 2008. A Neolitização do Portugal Meridional: Os exemplos do Maciço Calcário Estremenho e do Algarve Ocidental, Promontoria Monográfica. Universidade do Algarbe, Faro.
244;Cabeço do Pez;Distrito de Setúbal;Portugal;West Mediterranean;Ua-46933;6788;46;Short;AMS;Bone;Singular;Human;-20.7;6.7;3.3;Layer 4 (Santos et al. 1974);Burial 11, Burial area B;Mesolithic;Late;Castelnovian B;Late Mesolithic;5 trapeze / 7 triangle / 1 segment  [Santos et al. 1974];-8.42844;38.3528;Peyroteo-Stjerna 2016;Peyroteo-Stjerna , R., 2016. Death in the Mesolithic or the Mortuary Practices of the Last Hunter-Gatherers of the South-Western Iberian Peninsula, 7th–6th Millennium BCE, Occasional papers of Archaeology. University of Uppsala.
245;Cabeço do Pez;Distrito de Setúbal;Portugal;West Mediterranean;Ua-46932;6780;48;Short;AMS;Bone;Singular;Human;-19.8;10.4;3.2;Layer 4 (Santos et al. 1974);Burial 9, Burial area B;Mesolithic;Late;Castelnovian B;Late Mesolithic;5 trapeze / 7 triangle / 1 segment  [Santos et al. 1974];-8.42844;38.3528;Peyroteo-Stjerna 2016;Peyroteo-Stjerna , R., 2016. Death in the Mesolithic or the Mortuary Practices of the Last Hunter-Gatherers of the South-Western Iberian Peninsula, 7th–6th Millennium BCE, Occasional papers of Archaeology. University of Uppsala.
246;Cabeço do Pez;Distrito de Setúbal;Portugal;West Mediterranean;Ua-46934;6734;51;Short;AMS;Bone;Singular;Human;-19.7;13.5;3.3;Layer 4 (Santos et al. 1974);Burial 27, Burial area A;Mesolithic;Late;Castelnovian B;Late Mesolithic;5 trapeze / 7 triangle / 1 segment  [Santos et al. 1974];-8.42844;38.3528;Peyroteo-Stjerna 2016;Peyroteo-Stjerna , R., 2016. Death in the Mesolithic or the Mortuary Practices of the Last Hunter-Gatherers of the South-Western Iberian Peninsula, 7th–6th Millennium BCE, Occasional papers of Archaeology. University of Uppsala.
247;Cabeço do Pez;Distrito de Setúbal;Portugal;West Mediterranean;Ua-46931;6791;43;Short;AMS;Bone;Singular;Human;-18.3;13;3.5;Layer 4 (Santos et al. 1974);Burial 5, Burial area A;Mesolithic;Late;Castelnovian B;Late Mesolithic;5 trapeze / 7 triangle / 1 segment  [Santos et al. 1974];-8.42844;38.3528;Peyroteo-Stjerna 2016;Peyroteo-Stjerna , R., 2016. Death in the Mesolithic or the Mortuary Practices of the Last Hunter-Gatherers of the South-Western Iberian Peninsula, 7th–6th Millennium BCE, Occasional papers of Archaeology. University of Uppsala.
248;Cabeço do Rebolador;Distrito de Setúbal;Portugal;West Mediterranean;ICEN-277;7140;70;Short;Conventional;Shell;Bulk;n.d;;;;Middle;;Mesolithic;Late;Castelnovian A;Late Mesolithic;20 trapeze / 5 triangle /  8 segment [Marchand 2001];-9.10046;38.84263;Carvalho 2008;Carvalho, A.F., 2008. A Neolitização do Portugal Meridional: Os exemplos do Maciço Calcário Estremenho e do Algarve Ocidental, Promontoria Monográfica. Universidade do Algarbe, Faro.
249;Cabeço do Rebolador;Distrito de Setúbal;Portugal;West Mediterranean;ICEN-278;7100;60;Short;Conventional;Shell;Bulk;n.d;;;;Middle;;Mesolithic;Late;Castelnovian A;Late Mesolithic;20 trapeze / 5 triangle /  8 segment [Marchand 2001];-9.10046;38.84263;Carvalho 2008;Carvalho, A.F., 2008. A Neolitização do Portugal Meridional: Os exemplos do Maciço Calcário Estremenho e do Algarve Ocidental, Promontoria Monográfica. Universidade do Algarbe, Faro.
262;Castelejo;Distrito de Faro;Portugal;West Mediterranean;Beta-2908;7450;90;Long;n.d;Charcoal;Bulk;n.d;;;;Middle;;Mesolithic;Early;Initial Mesolithic;Early Mesolithic;;-8.97248;37.04049;Carvalho 2009;Carvalho, A.F., 2009. O Mesolítico final em Portugal, in: Utrilla, P., Montes, L. (Eds.), El Mesolítico Geométrico En La Península Ibérica. Universidad de Zaragoza, Zaragoza, pp. 33–68.
263;Castelejo;Distrito de Faro;Portugal;West Mediterranean;ICEN-743;7530;60;Short;n.d;Shell;Bulk;n.d;;;;Middle;;Mesolithic;Early;Initial Mesolithic;Early Mesolithic;;-8.97248;37.04049;Carvalho 2009;Carvalho, A.F., 2009. O Mesolítico final em Portugal, in: Utrilla, P., Montes, L. (Eds.), El Mesolítico Geométrico En La Península Ibérica. Universidad de Zaragoza, Zaragoza, pp. 33–68.
264;Castelejo;Distrito de Faro;Portugal;West Mediterranean;ICEN-745;7910;60;Short;n.d;Shell;Bulk;n.d;;;;Middle;;Mesolithic;Early;Initial Mesolithic;Early Mesolithic;;-8.97248;37.04049;Carvalho 2009;Carvalho, A.F., 2009. O Mesolítico final em Portugal, in: Utrilla, P., Montes, L. (Eds.), El Mesolítico Geométrico En La Península Ibérica. Universidad de Zaragoza, Zaragoza, pp. 33–68.
265;Castelejo;Distrito de Faro;Portugal;West Mediterranean;BM-2276R;8220;120;Short;n.d;Shell;Bulk;n.d;;;;Middle;;Mesolithic;Early;Initial Mesolithic;Early Mesolithic;;-8.97248;37.04049;Carvalho 2009;Carvalho, A.F., 2009. O Mesolítico final em Portugal, in: Utrilla, P., Montes, L. (Eds.), El Mesolítico Geométrico En La Península Ibérica. Universidad de Zaragoza, Zaragoza, pp. 33–68.
291;Costa do Pereiro;Distrito de Santarem;Portugal;West Mediterranean;Wk-17026;7327;42;Short;AMS;Bone;Singular;Cervus sp.;;;;;c1b (base);Mesolithic;Late;Castelnovian A;Late Mesolithic;21 trapeze / 3 segment;-7.71699;40.5288;Carvalho 2009;Carvalho, A.F., 2009. O Mesolítico final em Portugal, in: Utrilla, P., Montes, L. (Eds.), El Mesolítico Geométrico En La Península Ibérica. Universidad de Zaragoza, Zaragoza, pp. 33–68.
296;Cova da Onça;Distrito Santarem;Portugal;West Mediterranean;Beta-127448;7140;40;Short;AMS;Bone;Singular;Human;-17.2;;;Unknown;;Mesolithic;Late;Castelnovian B;Late Mesolithic;2 trapeze / 3 triangles [ Paço 1938];-8.71517;39.06579;Carvalho 2009;Carvalho, A.F., 2009. O Mesolítico final em Portugal, in: Utrilla, P., Montes, L. (Eds.), El Mesolítico Geométrico En La Península Ibérica. Universidad de Zaragoza, Zaragoza, pp. 33–68.
297;Cova de Baleia;Distrito de Lisboa;Portugal;West Mediterranean;Beta-294170;8230;50;Long;AMS;Charcoal;n.d;n.d;;;;Fase 1;Structure 1.1.1;Mesolithic;Early;Initial Mesolithic;Early Mesolithic;;-9.32598;38.9423;Sousa et al 2017;Sousa, A.C., Gibaja Bao, J., Mazzuco, N., Miranda, M., Tereso, J.P.V., Oliveira, C., Gonçalves, V.S., 2017. Clay combustion structures in early Mesolithic at Cova da Baleia (Mafra, Portugal): Approaches to their functionality. J. Archaeol. Sci. Rep. https://doi.org/10.1016/j.jasrep.2017.10.049
298;Cova de Baleia;Distrito de Lisboa;Portugal;West Mediterranean;Beta-295903;8460;50;Long;AMS;Charcoal;n.d;n.d;;;;Fase 1;Structure 1.1.4;Mesolithic;Early;Initial Mesolithic;Early Mesolithic;;-9.32598;38.9423;Sousa et al 2017;Sousa, A.C., Gibaja Bao, J., Mazzuco, N., Miranda, M., Tereso, J.P.V., Oliveira, C., Gonçalves, V.S., 2017. Clay combustion structures in early Mesolithic at Cova da Baleia (Mafra, Portugal): Approaches to their functionality. J. Archaeol. Sci. Rep. https://doi.org/10.1016/j.jasrep.2017.10.049
299;Cova de Baleia;Distrito de Lisboa;Portugal;West Mediterranean;Beta-295904;8250;50;Long;AMS;Charcoal;n.d;n.d;;;;Fase 1;Structure 1.1.1;Mesolithic;Early;Initial Mesolithic;Early Mesolithic;;-9.32598;38.9423;Sousa et al 2017;Sousa, A.C., Gibaja Bao, J., Mazzuco, N., Miranda, M., Tereso, J.P.V., Oliveira, C., Gonçalves, V.S., 2017. Clay combustion structures in early Mesolithic at Cova da Baleia (Mafra, Portugal): Approaches to their functionality. J. Archaeol. Sci. Rep. https://doi.org/10.1016/j.jasrep.2017.10.049
300;Cova de Baleia;Distrito de Lisboa;Portugal;West Mediterranean;Beta-295905;8320;40;Long;AMS;Charcoal;n.d;n.d;;;;Fase 1;Structure 1.1.2;Mesolithic;Early;Initial Mesolithic;Early Mesolithic;;-9.32598;38.9423;Sousa et al 2017;Sousa, A.C., Gibaja Bao, J., Mazzuco, N., Miranda, M., Tereso, J.P.V., Oliveira, C., Gonçalves, V.S., 2017. Clay combustion structures in early Mesolithic at Cova da Baleia (Mafra, Portugal): Approaches to their functionality. J. Archaeol. Sci. Rep. https://doi.org/10.1016/j.jasrep.2017.10.049
301;Cova de Baleia;Distrito de Lisboa;Portugal;West Mediterranean;Beta-464382;8410;30;Long;AMS;Charcoal;n.d;n.d;;;;Fase 2;Structure 1.2;Mesolithic;Late;Castelnovian A;Late Mesolithic;Older than archaeological context;-9.32598;38.9423;Sousa et al 2017;Sousa, A.C., Gibaja Bao, J., Mazzuco, N., Miranda, M., Tereso, J.P.V., Oliveira, C., Gonçalves, V.S., 2017. Clay combustion structures in early Mesolithic at Cova da Baleia (Mafra, Portugal): Approaches to their functionality. J. Archaeol. Sci. Rep. https://doi.org/10.1016/j.jasrep.2017.10.049
302;Cova de Baleia;Distrito de Lisboa;Portugal;West Mediterranean;Beta-464381;7330;30;Long;AMS;Charcoal;n.d;n.d;;;;Fase 2;Structure 1.2;Mesolithic;Late;Castelnovian A;Late Mesolithic;7 trapeze / 3 segment  [dibujo. Indican 18 en total];-9.32598;38.9423;Sousa et al 2017;Sousa, A.C., Gibaja Bao, J., Mazzuco, N., Miranda, M., Tereso, J.P.V., Oliveira, C., Gonçalves, V.S., 2017. Clay combustion structures in early Mesolithic at Cova da Baleia (Mafra, Portugal): Approaches to their functionality. J. Archaeol. Sci. Rep. https://doi.org/10.1016/j.jasrep.2017.10.049
378;Cuzoul de Gramat;R. Midi Pyrenées;France;West Mediterranean;Ly-14204;6200;45;Long;Conventional;Charcoal;n.d;n.d;;;;;Hearth F1 (HA2.2);Mesolithic;Late;Castelnovian n.d;Late Mesolithic;;1.7234;44.7811;Marchand y Perrin 2017;Marchand, G., Perrin, T., 2017. Why this revolution? Explaining the major technical shift in Southwestern Europe during the 7th millennium cal. BC. Frison Inst. Symp. Int. Perspect. Clim. Change Archaeol. 428, 73–85. https://doi.org/10.1016/j.quaint.2015.07.059
379;Cuzoul de Gramat;R. Midi Pyrenées;France;West Mediterranean;Ly-14459;6760;60;Long;Conventional;Charcoal;n.d;n.d;;;;;Hearth F2b (HA2.3);Mesolithic;Late;Castelnovian n.d;Late Mesolithic;;1.7234;44.7811;Marchand y Perrin 2017;Marchand, G., Perrin, T., 2017. Why this revolution? Explaining the major technical shift in Southwestern Europe during the 7th millennium cal. BC. Frison Inst. Symp. Int. Perspect. Clim. Change Archaeol. 428, 73–85. https://doi.org/10.1016/j.quaint.2015.07.059
380;Cuzoul de Gramat;R. Midi Pyrenées;France;West Mediterranean;Ly-14205;6490;40;Long;Conventional;Charcoal;n.d;n.d;;;;;Hearth F3h (HA2.4);Mesolithic;Early;Indeterminate;Early Mesolithic;Intrusive material;1.7234;44.7811;Marchand y Perrin 2017;Marchand, G., Perrin, T., 2017. Why this revolution? Explaining the major technical shift in Southwestern Europe during the 7th millennium cal. BC. Frison Inst. Symp. Int. Perspect. Clim. Change Archaeol. 428, 73–85. https://doi.org/10.1016/j.quaint.2015.07.059
381;Cuzoul de Gramat;R. Midi Pyrenées;France;West Mediterranean;Ly-14458;6815;40;Long;Conventional;Charcoal;n.d;n.d;;;;;SG5200;Mesolithic;Late;Castelnovian n.d;Late Mesolithic;;1.7234;44.7811;Marchand y Perrin 2017;Marchand, G., Perrin, T., 2017. Why this revolution? Explaining the major technical shift in Southwestern Europe during the 7th millennium cal. BC. Frison Inst. Symp. Int. Perspect. Clim. Change Archaeol. 428, 73–85. https://doi.org/10.1016/j.quaint.2015.07.059
382;Defesa de Cima 2;Distrito de Évora;Portugal;West Mediterranean;Beta-409413;7180;30;Short;Conventional;Bone;Singular;Burned / Calcinated;;;;-;Pit 1 (depth of 30 cm);Mesolithic;Late;Castelnovian A;Late Mesolithic;* Burnt bone without diagnostic material;-7.8036;38.4062;Diniz 2017;Diniz, M., 2017. Estratégias de povoamento, transições culturais e registo arqueológico (ou a irónica contingência da ciência). Uma datação absoluta para o sítio da Defesa de Cima 2 (Évora). Sci. Antiq. 1–1, 65–82.
451;Fiais;Distrito de Faro;Portugal;West Mediterranean;ICEN-103;6930;90;Short;Conventional;Shell;Bulk;n.d;;;;;Unknow;Mesolithic;Late;Castelnovian n.d;Late Mesolithic;;-8.66771;37.51617;Carvalho 2008;Carvalho, A.F., 2008. A Neolitização do Portugal Meridional: Os exemplos do Maciço Calcário Estremenho e do Algarve Ocidental, Promontoria Monográfica. Universidade do Algarbe, Faro.
452;Fiais;Distrito de Faro;Portugal;West Mediterranean;TO-705;6840;70;Long;Conventional;Charcoal;Bulk;n.d;;;;Central block;S.XIX, B8, z. 243;Mesolithic;Late;Castelnovian C;Late Mesolithic;16 trapeze / 16 triangle / 9 segment [Vierra 1995];-8.66771;37.51617;Zilhao 2000;Zilhão, J., 2000. From the mesolithic to the neolithic in the Iberian peninsular, in: Douglas, P.T. (Ed.), Europe’s First Farmers. The press syndicate of the University of Cambrigde, Cambridge, pp. 144–182.
453;Fiais;Distrito de Faro;Portugal;West Mediterranean;TO-706;6260;80;Short;Conventional;Bone;Bulk;n.d;;;;Central block;S.XIX, A10, z. 244;Mesolithic;Late;Castelnovian C;Late Mesolithic;16 trapeze / 16 triangle / 9 segment [Vierra 1995];-8.66771;37.51617;Zilhao 2000;Zilhão, J., 2000. From the mesolithic to the neolithic in the Iberian peninsular, in: Douglas, P.T. (Ed.), Europe’s First Farmers. The press syndicate of the University of Cambrigde, Cambridge, pp. 144–182.
454;Fiais;Distrito de Faro;Portugal;West Mediterranean;TO-806;7010;70;Long;Conventional;Charcoal;Bulk;n.d;;;;Northern block;S. XXI, G1, Feature 1;Mesolithic;Late;Castelnovian B;Late Mesolithic;6 trapeze / 9 triangle / 4 segment [Vierra 1995];-8.66771;37.51617;Zilhao 2000;Zilhão, J., 2000. From the mesolithic to the neolithic in the Iberian peninsular, in: Douglas, P.T. (Ed.), Europe’s First Farmers. The press syndicate of the University of Cambrigde, Cambridge, pp. 144–182.
455;Fiais;Distrito de Faro;Portugal;West Mediterranean;ICEN-141;6180;110;Short;Conventional;Bone;Bulk;n.d;;;;;Unknow;Mesolithic;Late;Castelnovian n.d;Late Mesolithic;;-8.66771;37.51617;Zilhao 2000;Zilhão, J., 2000. From the mesolithic to the neolithic in the Iberian peninsular, in: Douglas, P.T. (Ed.), Europe’s First Farmers. The press syndicate of the University of Cambrigde, Cambridge, pp. 144–182.
456;Fiais;Distrito de Faro;Portugal;West Mediterranean;ICEN-110;6870;220;Short;Conventional;Bone;Bulk;n.d;;;;;Unknow;Mesolithic;Late;Castelnovian n.d;Late Mesolithic;;-8.66771;37.51617;Zilhao 2000;Zilhão, J., 2000. From the mesolithic to the neolithic in the Iberian peninsular, in: Douglas, P.T. (Ed.), Europe’s First Farmers. The press syndicate of the University of Cambrigde, Cambridge, pp. 144–182.
468;Font-des-Pigeons;R. Provence Alpes / Côte d'Azur;France;West Mediterranean;Beta-267434;6250;40;Short;AMS;Seed / Fruit;Bulk;Cerealia sp.;;;;Layer 18;18 G;Mesolithic;Late;Castelnovian n.d;Late Mesolithic;7 trapezes [tBased on Defranould];5.16;43.38;Binder et al. 2017;Binder, D., Battentier, J., Delhon, C., Sénépart, I., 2017. In pursuit of a missing transition: the Mesolithic and Neolithic radiocarbon chronology at La Font-aux-Pigeons rockshelter. Antiquity 91, 605–620. doi:10.15184/aqy.2017.65
469;Font-des-Pigeons;R. Provence Alpes / Côte d'Azur;France;West Mediterranean;LTL-15950A;6400;45;Long;AMS;Charcoal;Singular;Pinus sp.;;;;Layer 19;19 B # 14;Mesolithic;Late;Castelnovian n.d;Late Mesolithic;9 trapezes [Based on Defranould];5.16;43.38;Binder et al. 2017;Binder, D., Battentier, J., Delhon, C., Sénépart, I., 2017. In pursuit of a missing transition: the Mesolithic and Neolithic radiocarbon chronology at La Font-aux-Pigeons rockshelter. Antiquity 91, 605–620. doi:10.15184/aqy.2017.65
470;Font-des-Pigeons;R. Provence Alpes / Côte d'Azur;France;West Mediterranean;LTL-15782A;6539;45;Long;AMS;Charcoal;Singular;Phyllyrea sp. / Rhamnus alaternus;;;;Layer 18;18 B # 3;Mesolithic;Late;Castelnovian n.d;Late Mesolithic;;5.16;43.38;Binder et al. 2017;Binder, D., Battentier, J., Delhon, C., Sénépart, I., 2017. In pursuit of a missing transition: the Mesolithic and Neolithic radiocarbon chronology at La Font-aux-Pigeons rockshelter. Antiquity 91, 605–620. doi:10.15184/aqy.2017.65
471;Font-des-Pigeons;R. Provence Alpes / Côte d'Azur;France;West Mediterranean;LTL-15785A;6633;50;Long;AMS;Charcoal;Singular;Arbutus unedo;;;;Layer 18;18 G3 # 13;Mesolithic;Late;Castelnovian n.d;Late Mesolithic;9 trapezes [Based on Defranould];5.16;43.38;Binder et al. 2017;Binder, D., Battentier, J., Delhon, C., Sénépart, I., 2017. In pursuit of a missing transition: the Mesolithic and Neolithic radiocarbon chronology at La Font-aux-Pigeons rockshelter. Antiquity 91, 605–620. doi:10.15184/aqy.2017.65
472;Font-des-Pigeons;R. Provence Alpes / Côte d'Azur;France;West Mediterranean;LTL-15786A;7357;50;Long;AMS;Charcoal;Singular;Phyllyrea sp. / Rhamnus alaternus;;;;Layer 18;18 G3 # 51;Mesolithic;Late;Castelnovian n.d;Late Mesolithic;9 trapezes [Based on Defranould];5.16;43.38;Binder et al. 2017;Binder, D., Battentier, J., Delhon, C., Sénépart, I., 2017. In pursuit of a missing transition: the Mesolithic and Neolithic radiocarbon chronology at La Font-aux-Pigeons rockshelter. Antiquity 91, 605–620. doi:10.15184/aqy.2017.65
473;Font-des-Pigeons;R. Provence Alpes / Côte d'Azur;France;West Mediterranean;LTL-15416A;7369;55;Short;AMS;Seed / Fruit;Singular;Pistacea sp.;;;;Layer 18;18 H;Mesolithic;Late;Castelnovian n.d;Late Mesolithic;3 trapezes [Based on Defranould];5.16;43.38;Binder et al. 2017;Binder, D., Battentier, J., Delhon, C., Sénépart, I., 2017. In pursuit of a missing transition: the Mesolithic and Neolithic radiocarbon chronology at La Font-aux-Pigeons rockshelter. Antiquity 91, 605–620. doi:10.15184/aqy.2017.65
474;Font-des-Pigeons;R. Provence Alpes / Côte d'Azur;France;West Mediterranean;LTL-15419A;7382;50;Short;AMS;Seed / Fruit;Singular;Pistacea sp.;;;;Layer 18;18 G3;Mesolithic;Late;Castelnovian n.d;Late Mesolithic;9 trapezes [Based on Defranould];5.16;43.38;Binder et al. 2017;Binder, D., Battentier, J., Delhon, C., Sénépart, I., 2017. In pursuit of a missing transition: the Mesolithic and Neolithic radiocarbon chronology at La Font-aux-Pigeons rockshelter. Antiquity 91, 605–620. doi:10.15184/aqy.2017.65
475;Font-des-Pigeons;R. Provence Alpes / Côte d'Azur;France;West Mediterranean;LTL1-5949A;7573;60;Long;AMS;Charcoal;Singular;Phyllyrea sp. / Rhamnus alaternus;;;;Layer 19;19 B # 4;Mesolithic;Late;Castelnovian n.d;Late Mesolithic;9 trapezes [Based on Defranould];5.16;43.38;Binder et al. 2017;Binder, D., Battentier, J., Delhon, C., Sénépart, I., 2017. In pursuit of a missing transition: the Mesolithic and Neolithic radiocarbon chronology at La Font-aux-Pigeons rockshelter. Antiquity 91, 605–620. doi:10.15184/aqy.2017.65
476;Font-des-Pigeons;R. Provence Alpes / Côte d'Azur;France;West Mediterranean;Ly-2830;7260;120;Long;Conventional;Charcoal;n.d;n.d;;;;Layer 18;18G;Mesolithic;Late;Castelnovian n.d;Late Mesolithic;7 trapezes [Based on Defranould];5.16;43.38;Marchand y Perrin 2017;Marchand, G., Perrin, T., 2017. Why this revolution? Explaining the major technical shift in Southwestern Europe during the 7th millennium cal. BC. Frison Inst. Symp. Int. Perspect. Clim. Change Archaeol. 428, 73–85. https://doi.org/10.1016/j.quaint.2015.07.059
477;Font-des-Pigeons;R. Provence Alpes / Côte d'Azur;France;West Mediterranean;Ly-2832;7290;130;Long;Conventional;Charcoal;n.d;n.d;;;;Layer 19;19;Mesolithic;Late;Castelnovian n.d;Late Mesolithic;9 trapezes [Based on Defranould];5.16;43.38;Marchand y Perrin 2017;Marchand, G., Perrin, T., 2017. Why this revolution? Explaining the major technical shift in Southwestern Europe during the 7th millennium cal. BC. Frison Inst. Symp. Int. Perspect. Clim. Change Archaeol. 428, 73–85. https://doi.org/10.1016/j.quaint.2015.07.059
478;Font-des-Pigeons;R. Provence Alpes / Côte d'Azur;France;West Mediterranean;Ly-2833;7630;150;Long;Conventional;Charcoal;n.d;n.d;;;; Layer 20;20;Mesolithic;Late;Castelnovian n.d;Late Mesolithic;;5.16;43.38;Marchand y Perrin 2017;Marchand, G., Perrin, T., 2017. Why this revolution? Explaining the major technical shift in Southwestern Europe during the 7th millennium cal. BC. Frison Inst. Symp. Int. Perspect. Clim. Change Archaeol. 428, 73–85. https://doi.org/10.1016/j.quaint.2015.07.059
485;Forno da Telha;Distrito de Leiria;Portugal;West Mediterranean;Wk-18358;6764;35;Short;AMS;Bone;Singular;Sus scrofa;;;;Shell Midden;;Mesolithic;Late;Castelnovian C;Late Mesolithic;3 trapeze / 8 triangle / 9 segment [Araujo 1993];-9.08277;39.38736;Araújo 1993;Araújo, A.C., 1993. A estação mesolítica do Forno da Telha (Rio Maior). Presented at the 1. o Congresso de Arqueologia Peninsular:(Porto, 12-18 de Outubro de 1993): actas, Sociedade Portuguesa de Antropologia e Etnologia, pp. 15–39.
486;Forno da Telha;Distrito de Leiria;Portugal;West Mediterranean;ICEN-416;7320;60;Short;n.d;Shell;n.d;Cerastodema edule;;;;Base;Layer 2;Mesolithic;Late;Castelnovian B;Late Mesolithic;69 trapeze / 82 triangle / 67 segment [Araujo 1993];-9.08277;39.38736;Carvalho 2009;Carvalho, A.F., 2009. O Mesolítico final em Portugal, in: Utrilla, P., Montes, L. (Eds.), El Mesolítico Geométrico En La Península Ibérica. Universidad de Zaragoza, Zaragoza, pp. 33–68.
487;Forno da Telha;Distrito de Leiria;Portugal;West Mediterranean;ICEN-417;7360;90;Short;Conventional;Shell;Bulk;n.d;;;;Base;Layer 2;Mesolithic;Late;Castelnovian B;Late Mesolithic;69 trapeze / 82 triangle / 67 segment [Araujo 1993];-9.08277;39.38736;Zilhao 2000;Zilhão, J., 2000. From the mesolithic to the neolithic in the Iberian peninsular, in: Douglas, P.T. (Ed.), Europe’s First Farmers. The press syndicate of the University of Cambrigde, Cambridge, pp. 144–182.
492;Grande-Rivoire;R. Rhône-Alpes;France;West Mediterranean;Beta-255119;7310;40;Short;AMS;Bone;Singular;n.d;;;;Sector 17 D30;US 25 – 27;Mesolithic;Late;Castelnovian n.d;Late Mesolithic;Presence of trapezes;5.6386;45.2071;Marchand y Perrin 2017;Marchand, G., Perrin, T., 2017. Why this revolution? Explaining the major technical shift in Southwestern Europe during the 7th millennium cal. BC. Frison Inst. Symp. Int. Perspect. Clim. Change Archaeol. 428, 73–85. https://doi.org/10.1016/j.quaint.2015.07.059
493;Grande-Rivoire;R. Rhône-Alpes;France;West Mediterranean;GrA-25066;7435;45;Short;AMS;Bone;Singular;n.d;;;;;GRIV87 6.66 B3 ?;Mesolithic;Late;Castelnovian n.d;Late Mesolithic;Presence of trapezes;5.6386;45.2071;Marchand y Perrin 2017;Marchand, G., Perrin, T., 2017. Why this revolution? Explaining the major technical shift in Southwestern Europe during the 7th millennium cal. BC. Frison Inst. Symp. Int. Perspect. Clim. Change Archaeol. 428, 73–85. https://doi.org/10.1016/j.quaint.2015.07.059
494;Grande-Rivoire;R. Rhône-Alpes;France;West Mediterranean;Beta-282248;7790;45;Short;AMS;Bone;Singular;n.d;;;;Sector 17 D34;US 30-32;Mesolithic;Early / Late;Mixed cultural horizons;Early / Late Mesolithic;Meso 1 o Meso 2 (mix);5.6386;45.2071;Nicod et al. 2012;Nicod, P.-Y., Perrin, T., Brochier, J.-L., Chaix, L., Marquebielle, B., Picavet, R., Vannieuwenhuyse, D., 2012. Continuités et ruptures culturelles entre chasseurs mésolithiques et chasseurs néolithiques en Vercors: analyse préliminaire des niveaux du Mésolithique récent et du Néolithique ancien..., in: Perrin, T., Sénépart, I., Cauliez, J., Thirault, É., Bonnardin, S. (Eds.), 9e RMPR (Saint-Georges-de-Didonne 2010) — Dynamismes et Rythmes Évolutifs Des Sociétés de La Préhistoire Récente. Archives d’Écologie Préhistorique, Tolouse, pp. 13–32.
693;Lalo;R. Rhône-Alpes;France;West Mediterranean;AA-32642;7315;65;Long;AMS;Charcoal;n.d;n.d;;;;Lower terrace;Structure 8;Mesolithic;Late;Castelnovian n.d;Late Mesolithic;16 trapezes [tBased on Defranould];4.82118;44.5253;Marchand y Perrin 2017;Marchand, G., Perrin, T., 2017. Why this revolution? Explaining the major technical shift in Southwestern Europe during the 7th millennium cal. BC. Frison Inst. Symp. Int. Perspect. Clim. Change Archaeol. 428, 73–85. https://doi.org/10.1016/j.quaint.2015.07.059
740;Medo Tojeiro;Distrito de Beja;Portugal;West Mediterranean;Beta-11723;5450;160;Long;n.d;Charcoal;Bulk;n.d;;;;Level 4;Hearth;Mesolithic;Late;Castelnovian n.d;Late Mesolithic;* No fiable;-8.7719;37.64737;Lubell y Jackes 1985;Lubell, D., Jackes, M., 1985. Mesolithic-Neolithic continuity: evidence from chronology and human biology. Résumé 6, 2H4.
741;Medo Tojeiro;Distrito de Beja;Portugal;West Mediterranean;BM-2275R;6820;140;Short;Conventional;Shell;Bulk;n.d;;;;Level 4 ?;exposed face;Mesolithic;Late;Castelnovian n.d;Late Mesolithic;non diagnostic material;-8.7719;37.64737;Zilhao 2000;Zilhão, J., 2000. From the mesolithic to the neolithic in the Iberian peninsular, in: Douglas, P.T. (Ed.), Europe’s First Farmers. The press syndicate of the University of Cambrigde, Cambridge, pp. 144–182.
751;Moita da Sebastiao;Distrito de Setúbal;Portugal;West Mediterranean;Beta-127449;7120;70;Short;n.d;Bone;Singular;Human;-16.8;;;;Burial 16;Mesolithic;Late;Castelnovian A;Late Mesolithic;302 trapeze / 9 triangle [Roche 1960] * General lithic overview;-8.5607;39.11194;Carvalho 2009;Carvalho, A.F., 2009. O Mesolítico final em Portugal, in: Utrilla, P., Montes, L. (Eds.), El Mesolítico Geométrico En La Península Ibérica. Universidad de Zaragoza, Zaragoza, pp. 33–68.
752;Moita da Sebastiao;Distrito de Setúbal;Portugal;West Mediterranean;TO-131;7240;70;Short;Conventional;Bone;Singular;Human;-16.1;12.2;;Basal sand?;Burial 22;Mesolithic;Late;Castelnovian A;Late Mesolithic;302 trapeze / 9 triangle [Roche 1960] * General lithic overview;-8.5607;39.11194;Zilhao 2000;Zilhão, J., 2000. From the mesolithic to the neolithic in the Iberian peninsular, in: Douglas, P.T. (Ed.), Europe’s First Farmers. The press syndicate of the University of Cambrigde, Cambridge, pp. 144–182.
753;Moita da Sebastiao;Distrito de Setúbal;Portugal;West Mediterranean;TO-132;7180;70;Short;Conventional;Bone;Singular;Human;-16.8;11.9;;Basal sand?;Burial 24;Mesolithic;Late;Castelnovian A;Late Mesolithic;302 trapeze / 9 triangle [Roche 1960] * General lithic overview;-8.5607;39.11194;Zilhao 2000;Zilhão, J., 2000. From the mesolithic to the neolithic in the Iberian peninsular, in: Douglas, P.T. (Ed.), Europe’s First Farmers. The press syndicate of the University of Cambrigde, Cambridge, pp. 144–182.
754;Moita da Sebastiao;Distrito de Setúbal;Portugal;West Mediterranean;TO-133;7200;70;Short;Conventional;Bone;Singular;Human;-16.9;10.4;;;Burial 29;Mesolithic;Late;Castelnovian A;Late Mesolithic;302 trapeze / 9 triangle [Roche 1960] * General lithic overview;-8.5607;39.11194;Zilhao 2000;Zilhão, J., 2000. From the mesolithic to the neolithic in the Iberian peninsular, in: Douglas, P.T. (Ed.), Europe’s First Farmers. The press syndicate of the University of Cambrigde, Cambridge, pp. 144–182.
755;Moita da Sebastiao;Distrito de Setúbal;Portugal;West Mediterranean;TO-134;7160;80;Short;Conventional;Bone;Singular;Human;-16.7;11.2;;Basal sand?;Burial 41;Mesolithic;Late;Castelnovian A;Late Mesolithic;302 trapeze / 9 triangle [Roche 1960] * General lithic overview;-8.5607;39.11194;Zilhao 2000;Zilhão, J., 2000. From the mesolithic to the neolithic in the Iberian peninsular, in: Douglas, P.T. (Ed.), Europe’s First Farmers. The press syndicate of the University of Cambrigde, Cambridge, pp. 144–182.
756;Moita da Sebastiao;Distrito de Setúbal;Portugal;West Mediterranean;TO-135;6810;70;Short;Conventional;Bone;Singular;Human;-15.3;13.4;;Basal Sand?;Burial CT;Mesolithic;Late;Castelnovian A;Late Mesolithic;302 trapeze / 9 triangle [Roche 1960] * General lithic overview;-8.5607;39.11194;Zilhao 2000;Zilhão, J., 2000. From the mesolithic to the neolithic in the Iberian peninsular, in: Douglas, P.T. (Ed.), Europe’s First Farmers. The press syndicate of the University of Cambrigde, Cambridge, pp. 144–182.
757;Moita da Sebastiao;Distrito de Setúbal;Portugal;West Mediterranean;H-2119/1546;7080;130;Long;Conventional;Charcoal;n.d;n.d;;;;Basal level;;Mesolithic;Late;Castelnovian A;Late Mesolithic;302 trapeze / 9 triangle [Roche 1960] * General lithic overview;-8.561;39.11259;Gkiasta et al. 2003;Gkiasta, M., Russell, T., Shennan, S., Steele, J., 2003. Neolithic transition in Europe: The radiocarbon record revisited. Antiquity 77, 45–62.
758;Moita da Sebastiao;Distrito de Setúbal;Portugal;West Mediterranean;Ua-46270;6743;44;Short;Conventional;Bone;Singular;Human;18.4;10.5;3.2;Basal sand;Burial 33;Mesolithic;Late;Castelnovian A;Late Mesolithic;302 trapeze / 9 triangle [Roche 1960] * General lithic overview;-8.5607;39.11194;Peyroteo-Stjerna 2016;Peyroteo-Stjerna , R., 2016. Death in the Mesolithic or the Mortuary Practices of the Last Hunter-Gatherers of the South-Western Iberian Peninsula, 7th–6th Millennium BCE, Occasional papers of Archaeology. University of Uppsala.
759;Moita da Sebastiao;Distrito de Setúbal;Portugal;West Mediterranean;Ua-47978;6753;46;Short;Conventional;Bone;Singular;Human;-18.2;9;3.4;Basal sand;Burial 10;Mesolithic;Late;Castelnovian A;Late Mesolithic;302 trapeze / 9 triangle [Roche 1960] * General lithic overview;-8.5607;39.11194;Peyroteo-Stjerna 2016;Peyroteo-Stjerna , R., 2016. Death in the Mesolithic or the Mortuary Practices of the Last Hunter-Gatherers of the South-Western Iberian Peninsula, 7th–6th Millennium BCE, Occasional papers of Archaeology. University of Uppsala.
760;Moita da Sebastiao;Distrito de Setúbal;Portugal;West Mediterranean;Ua-46265;6986;40;Short;Conventional;Bone;Singular;Human;-17.9;10.2;;Basal sand;Burial 15;Mesolithic;Late;Castelnovian A;Late Mesolithic;302 trapeze / 9 triangle [Roche 1960] * General lithic overview;-8.5607;39.11194;Peyroteo-Stjerna 2016;Peyroteo-Stjerna , R., 2016. Death in the Mesolithic or the Mortuary Practices of the Last Hunter-Gatherers of the South-Western Iberian Peninsula, 7th–6th Millennium BCE, Occasional papers of Archaeology. University of Uppsala.
761;Moita da Sebastiao;Distrito de Setúbal;Portugal;West Mediterranean;Ua-47981;7058;44;Short;Conventional;Bone;Singular;Human;-17.4;9.8;3.2;;Burial 30;Mesolithic;Late;Castelnovian A;Late Mesolithic;302 trapeze / 9 triangle [Roche 1960] * General lithic overview;-8.5607;39.11194;Peyroteo-Stjerna 2016;Peyroteo-Stjerna , R., 2016. Death in the Mesolithic or the Mortuary Practices of the Last Hunter-Gatherers of the South-Western Iberian Peninsula, 7th–6th Millennium BCE, Occasional papers of Archaeology. University of Uppsala.
762;Moita da Sebastiao;Distrito de Setúbal;Portugal;West Mediterranean;Ua-46269;7141;40;Short;Conventional;Bone;Singular;Human;-17.4;10.6;3.2;Basal sand;Burial 31;Mesolithic;Late;Castelnovian A;Late Mesolithic;302 trapeze / 9 triangle [Roche 1960] * General lithic overview;-8.5607;39.11194;Peyroteo-Stjerna 2016;Peyroteo-Stjerna , R., 2016. Death in the Mesolithic or the Mortuary Practices of the Last Hunter-Gatherers of the South-Western Iberian Peninsula, 7th–6th Millennium BCE, Occasional papers of Archaeology. University of Uppsala.
763;Moita da Sebastiao;Distrito de Setúbal;Portugal;West Mediterranean;Ua-46263;7483;48;Short;Conventional;Bone;Singular;Human;-17;10.5;3.2;Basal sand;Burial 1;Mesolithic;Late;Castelnovian A;Late Mesolithic;302 trapeze / 9 triangle [Roche 1960] * General lithic overview;-8.5607;39.11194;Peyroteo-Stjerna 2016;Peyroteo-Stjerna , R., 2016. Death in the Mesolithic or the Mortuary Practices of the Last Hunter-Gatherers of the South-Western Iberian Peninsula, 7th–6th Millennium BCE, Occasional papers of Archaeology. University of Uppsala.
764;Moita da Sebastiao;Distrito de Setúbal;Portugal;West Mediterranean;Ua-46264;7621;50;Short;Conventional;Bone;Singular;Human;-17;10.8;3.2;Basal Sand;Burial 9;Mesolithic;Late;Castelnovian A;Late Mesolithic;302 trapeze / 9 triangle [Roche 1960] * General lithic overview;-8.5607;39.11194;Peyroteo-Stjerna 2016;Peyroteo-Stjerna , R., 2016. Death in the Mesolithic or the Mortuary Practices of the Last Hunter-Gatherers of the South-Western Iberian Peninsula, 7th–6th Millennium BCE, Occasional papers of Archaeology. University of Uppsala.
765;Moita da Sebastiao;Distrito de Setúbal;Portugal;West Mediterranean;Ua-46266;7095;45;Short;Conventional;Bone;Singular;Human;-16.9;10.8;3.1;Basal sand;Burial 18;Mesolithic;Late;Castelnovian A;Late Mesolithic;302 trapeze / 9 triangle [Roche 1960] * General lithic overview;-8.5607;39.11194;Peyroteo-Stjerna 2016;Peyroteo-Stjerna , R., 2016. Death in the Mesolithic or the Mortuary Practices of the Last Hunter-Gatherers of the South-Western Iberian Peninsula, 7th–6th Millennium BCE, Occasional papers of Archaeology. University of Uppsala.
766;Moita da Sebastiao;Distrito de Setúbal;Portugal;West Mediterranean;Ua-46267;7120;43;Short;Conventional;Bone;Singular;Human;-16.9;12.8;3.2;Basal sand;Burial 22;Mesolithic;Late;Castelnovian A;Late Mesolithic;302 trapeze / 9 triangle [Roche 1960] * General lithic overview;-8.5607;39.11194;Peyroteo-Stjerna 2016;Peyroteo-Stjerna , R., 2016. Death in the Mesolithic or the Mortuary Practices of the Last Hunter-Gatherers of the South-Western Iberian Peninsula, 7th–6th Millennium BCE, Occasional papers of Archaeology. University of Uppsala.
767;Moita da Sebastiao;Distrito de Setúbal;Portugal;West Mediterranean;Ua-47977;7138;42;Short;Conventional;Bone;Singular;Human;16.9;9.3;3.1;Basal sand;Burial 5;Mesolithic;Late;Castelnovian A;Late Mesolithic;302 trapeze / 9 triangle [Roche 1960] * General lithic overview;-8.5607;39.11194;Peyroteo-Stjerna 2016;Peyroteo-Stjerna , R., 2016. Death in the Mesolithic or the Mortuary Practices of the Last Hunter-Gatherers of the South-Western Iberian Peninsula, 7th–6th Millennium BCE, Occasional papers of Archaeology. University of Uppsala.
768;Moita da Sebastiao;Distrito de Setúbal;Portugal;West Mediterranean;Ua-47980;7105;42;Short;Conventional;Bone;Singular;Human;16.8;9.5;3.1;Basal sand;Burial 17;Mesolithic;Late;Castelnovian A;Late Mesolithic;302 trapeze / 9 triangle [Roche 1960] * General lithic overview;-8.5607;39.11194;Peyroteo-Stjerna 2016;Peyroteo-Stjerna , R., 2016. Death in the Mesolithic or the Mortuary Practices of the Last Hunter-Gatherers of the South-Western Iberian Peninsula, 7th–6th Millennium BCE, Occasional papers of Archaeology. University of Uppsala.
769;Moita da Sebastiao;Distrito de Setúbal;Portugal;West Mediterranean;Ua-46271;7236;41;Short;Conventional;Bone;Singular;Human;-16.3;11.9;3.2;;Burial 34;Mesolithic;Late;Castelnovian A;Late Mesolithic;302 trapeze / 9 triangle [Roche 1960] * General lithic overview;-8.5607;39.11194;Peyroteo-Stjerna 2016;Peyroteo-Stjerna , R., 2016. Death in the Mesolithic or the Mortuary Practices of the Last Hunter-Gatherers of the South-Western Iberian Peninsula, 7th–6th Millennium BCE, Occasional papers of Archaeology. University of Uppsala.
770;Moita da Sebastiao;Distrito de Setúbal;Portugal;West Mediterranean;Ua-46268;7243;45;Short;Conventional;Bone;Singular;Human;-16.2;14;3.2;Basal sand;Burial 25;Mesolithic;Late;Castelnovian A;Late Mesolithic;302 trapeze / 9 triangle [Roche 1960] * General lithic overview;-8.5607;39.11194;Peyroteo-Stjerna 2016;Peyroteo-Stjerna , R., 2016. Death in the Mesolithic or the Mortuary Practices of the Last Hunter-Gatherers of the South-Western Iberian Peninsula, 7th–6th Millennium BCE, Occasional papers of Archaeology. University of Uppsala.
786;Montes de Baixo;Distrito de Beja;Portugal;West Mediterranean;ICEN-718;7590;60;Short;Conventional;Shell;Singular;Patella sp.;;;;;Layer 2;Mesolithic;Late;Indeterminate;Late Mesolithic;non diagnostic material;-8.80571;37.41583;Carvalho 2009;Carvalho, A.F., 2009. O Mesolítico final em Portugal, in: Utrilla, P., Montes, L. (Eds.), El Mesolítico Geométrico En La Península Ibérica. Universidad de Zaragoza, Zaragoza, pp. 33–68.
787;Montes de Baixo;Distrito de Beja;Portugal;West Mediterranean;ICEN-720;7910;60;Short;Conventional;Shell;Singular;Patella sp.;;;;;Layer 4;Mesolithic;Early;Initial Mesolithic;Early Mesolithic;non diagnostic material (dudas crono);-8.80571;37.41583;Carvalho 2009;Carvalho, A.F., 2009. O Mesolítico final em Portugal, in: Utrilla, P., Montes, L. (Eds.), El Mesolítico Geométrico En La Península Ibérica. Universidad de Zaragoza, Zaragoza, pp. 33–68.
788;Mourre du Sève;R. Provence Alpes / Côte d'Azur;France;West Mediterranean;Lyon-148;7730;60;Long;AMS;Charcoal;Singular;Quercus sp.;;;;E2;UE 13-16;Mesolithic;Late;Castelnovian n.d;Late Mesolithic;3 trapezes [Based on Defranould];4.8941;44.0184;Marchand y Perrin 2017;Marchand, G., Perrin, T., 2017. Why this revolution? Explaining the major technical shift in Southwestern Europe during the 7th millennium cal. BC. Frison Inst. Symp. Int. Perspect. Clim. Change Archaeol. 428, 73–85. https://doi.org/10.1016/j.quaint.2015.07.059
789;Mourre du Sève;R. Provence Alpes / Côte d'Azur;France;West Mediterranean;Lyon-149;7640;65;Long;AMS;Charcoal;Singular;Quercus sp.;;;;E2;UE 9-10;Mesolithic;Late;Castelnovian n.d;Late Mesolithic;3 trapezes [Based on Defranould];4.8941;44.0184;Marchand y Perrin 2017;Marchand, G., Perrin, T., 2017. Why this revolution? Explaining the major technical shift in Southwestern Europe during the 7th millennium cal. BC. Frison Inst. Symp. Int. Perspect. Clim. Change Archaeol. 428, 73–85. https://doi.org/10.1016/j.quaint.2015.07.059
790;Mourre du Sève;R. Provence Alpes / Côte d'Azur;France;West Mediterranean;Lyon-150;7415;60;Long;AMS;Charcoal;Singular;Quercus sp.;;;;E2;UE 3-7;Mesolithic;Late;Castelnovian n.d;Late Mesolithic;3 trapezes [Based on Defranould];4.8941;44.0184;Marchand y Perrin 2017;Marchand, G., Perrin, T., 2017. Why this revolution? Explaining the major technical shift in Southwestern Europe during the 7th millennium cal. BC. Frison Inst. Symp. Int. Perspect. Clim. Change Archaeol. 428, 73–85. https://doi.org/10.1016/j.quaint.2015.07.059
807;Paço velho;Distrito de Beja;Portugal;West Mediterranean;Sac-2847;6930;60;Short;n.d;Shell;Bulk;n.d;;;;Surface;;Mesolithic;Late;Castelnovian C;Late Mesolithic;1 trapeze but non diagnostic material;-8.7316;37.4036;Reis 2014;Reis, H., 2014. The Mesolithic – Neolithic Transition on the South-Western Portuguese Coast: Preliminary Data  on the Shellmidden of Paço Velho 2. P@lethnology 6, 153–159.
847;Poças de Sao Bento;Distrito de Setúbal;Portugal;West Mediterranean;Q-2493;7040;70;Short;Conventional;Shell;Bulk;n.d;;;;Lower;Layer 3 = Layer C;Mesolithic;Late;Castelnovian C;Late Mesolithic;21 trapeze / 3 triangle [Araujo 1995-1997];-8.51909;38.2461;Carvalho 2008;Carvalho, A.F., 2008. A Neolitização do Portugal Meridional: Os exemplos do Maciço Calcário Estremenho e do Algarve Ocidental, Promontoria Monográfica. Universidade do Algarbe, Faro.
848;Poças de Sao Bento;Distrito de Setúbal;Portugal;West Mediterranean;Q-2494;6780;65;Long;Conventional;Charcoal;Bulk;n.d;;;;Middle;Layer 2 = Layer B;Mesolithic;Late;Castelnovian C;Late Mesolithic;98 trapeze / 16 triangle / 38 segment [Araujo 1995-1997];-8.51909;38.2461;Zilhao 2000;Zilhão, J., 2000. From the mesolithic to the neolithic in the Iberian peninsular, in: Douglas, P.T. (Ed.), Europe’s First Farmers. The press syndicate of the University of Cambrigde, Cambridge, pp. 144–182.
849;Poças de Sao Bento;Distrito de Setúbal;Portugal;West Mediterranean;Q-2495;6470;70;Short;Conventional;Shell;Bulk;n.d;;;;Middle;Layer 2 = Layer B;Mesolithic;Late;Castelnovian C;Late Mesolithic;98 trapeze / 16 triangle / 38 segment [Araujo 1995-1997];-8.51909;38.2461;Zilhao 2000;Zilhão, J., 2000. From the mesolithic to the neolithic in the Iberian peninsular, in: Douglas, P.T. (Ed.), Europe’s First Farmers. The press syndicate of the University of Cambrigde, Cambridge, pp. 144–182.
850;Poças de Sao Bento;Distrito de Setúbal;Portugal;West Mediterranean;OxA-29113;7238;35;Short;AMS;Bone;Singular;Human;-17.2;11.3;;Diniz / Arias excavation;Trench 1 SU 613 (Burial 14) = Layer D;Mesolithic;Late;Castelnovian n.d;Late Mesolithic;5 trapeze / 3 triangle [Araujo 1995-1997];-8.51909;38.2461;López 2015;López López-Dóriga, I., 2015. La utilización de los recursos vegetales durante el Mesolítico y Neolítico en la costa atlántica de la península ibérica (PhD in Prehistory). Universidad de Cantabria, Santander.
851;Poças de Sao Bento;Distrito de Setúbal;Portugal;West Mediterranean;Lu-2769;7150;70;Short;AMS;Shell;Bulk;n.d;;;;;45-50 cm;Mesolithic;Late;Castelnovian C;Late Mesolithic;21 trapeze / 3 triangle [Araujo 1995-1997];-8.51909;38.2461;López 2015;López López-Dóriga, I., 2015. La utilización de los recursos vegetales durante el Mesolítico y Neolítico en la costa atlántica de la península ibérica (PhD in Prehistory). Universidad de Cantabria, Santander.
852;Poças de Sao Bento;Distrito de Setúbal;Portugal;West Mediterranean;OxA-29114;7121;35;Short;AMS;Shell;Singular;Scrobicularia plana;-5;;;Diniz / Arias excavation;Trench 1 SU 403;Mesolithic;Late;Castelnovian C;Late Mesolithic;21 trapeze / 3 triangle [Araujo 1995-1997];-8.51909;38.2461;López 2015;López López-Dóriga, I., 2015. La utilización de los recursos vegetales durante el Mesolítico y Neolítico en la costa atlántica de la península ibérica (PhD in Prehistory). Universidad de Cantabria, Santander.
853;Poças de Sao Bento;Distrito de Setúbal;Portugal;West Mediterranean;OxA-24652;7107;37;Short;AMS;Shell;Singular;Cerastodema edule;-3;;;Diniz / Arias excavation;Trench 1 SU 3 / 7 (layer C, old excavation correl);Mesolithic;Late;Castelnovian C;Late Mesolithic;21 trapeze / 3 triangle [Araujo 1995-1997];-8.51909;38.2461;López 2015;López López-Dóriga, I., 2015. La utilización de los recursos vegetales durante el Mesolítico y Neolítico en la costa atlántica de la península ibérica (PhD in Prehistory). Universidad de Cantabria, Santander.
854;Poças de Sao Bento;Distrito de Setúbal;Portugal;West Mediterranean;OxA-24648;7084;36;Short;AMS;Shell;Singular;Cerastodema edule;-3.6;;;Diniz / Arias excavation;Trench 1 SU 3 / 7 (layer C, old excavation correl);Mesolithic;Late;Castelnovian C;Late Mesolithic;21 trapeze / 3 triangle [Araujo 1995-1997];-8.51909;38.2461;López 2015;López López-Dóriga, I., 2015. La utilización de los recursos vegetales durante el Mesolítico y Neolítico en la costa atlántica de la península ibérica (PhD in Prehistory). Universidad de Cantabria, Santander.
855;Poças de Sao Bento;Distrito de Setúbal;Portugal;West Mediterranean;OxA-24650;7070;35;Short;AMS;Shell;Singular;Cerastodema edule;-3.2;;;Diniz / Arias excavation;Trench 1 SU 3 / 7 (layer C, old excavation correl);Mesolithic;Late;Castelnovian C;Late Mesolithic;21 trapeze / 3 triangle [Araujo 1995-1997];-8.51909;38.2461;López 2015;López López-Dóriga, I., 2015. La utilización de los recursos vegetales durante el Mesolítico y Neolítico en la costa atlántica de la península ibérica (PhD in Prehistory). Universidad de Cantabria, Santander.
856;Poças de Sao Bento;Distrito de Setúbal;Portugal;West Mediterranean;OxA-24651;7053;37;Short;AMS;Shell;Singular;Cerastodema edule;-3.1;;;Diniz / Arias excavation;Trench 1 SU 3 / 7 (layer C, old excavation correl);Mesolithic;Late;Castelnovian C;Late Mesolithic;21 trapeze / 3 triangle [Araujo 1995-1997];-8.51909;38.2461;López 2015;López López-Dóriga, I., 2015. La utilización de los recursos vegetales durante el Mesolítico y Neolítico en la costa atlántica de la península ibérica (PhD in Prehistory). Universidad de Cantabria, Santander.
857;Poças de Sao Bento;Distrito de Setúbal;Portugal;West Mediterranean;OxA-24649;7052;35;Short;AMS;Shell;Singular;Cerastodema edule;-3.1;;;Diniz / Arias excavation;Trench 1 SU 3 / 7 (layer C, old excavation correl);Mesolithic;Late;Castelnovian C;Late Mesolithic;21 trapeze / 3 triangle [Araujo 1995-1997];-8.51909;38.2461;López 2015;López López-Dóriga, I., 2015. La utilización de los recursos vegetales durante el Mesolítico y Neolítico en la costa atlántica de la península ibérica (PhD in Prehistory). Universidad de Cantabria, Santander.
858;Poças de Sao Bento;Distrito de Setúbal;Portugal;West Mediterranean;Lu-2770;7050;60;Short;AMS;Shell;Bulk;n.d;;;;;65-70 cm;Mesolithic;Late;Castelnovian C;Late Mesolithic;21 trapeze / 3 triangle [Araujo 1995-1997];-8.51909;38.2461;López 2015;López López-Dóriga, I., 2015. La utilización de los recursos vegetales durante el Mesolítico y Neolítico en la costa atlántica de la península ibérica (PhD in Prehistory). Universidad de Cantabria, Santander.
859;Poças de Sao Bento;Distrito de Setúbal;Portugal;West Mediterranean;OxA-29235;6962;37;Short;AMS;Bone;Singular;Meles meles;-18.9;;;Diniz / Arias excavation;Trench 1 SU 3 / 7 (layer C, old excavation correl);Mesolithic;Late;Castelnovian C;Late Mesolithic;21 trapeze / 3 triangle [Araujo 1995-1997];-8.51909;38.2461;López 2015;López López-Dóriga, I., 2015. La utilización de los recursos vegetales durante el Mesolítico y Neolítico en la costa atlántica de la península ibérica (PhD in Prehistory). Universidad de Cantabria, Santander.
860;Poças de Sao Bento;Distrito de Setúbal;Portugal;West Mediterranean;OxA-26094;6866;33;Short;AMS;Bone;Singular;Canis familiaris;-17.9;;;Diniz / Arias excavation;Trench 1 SU 8;Mesolithic;Late;Castelnovian C;Late Mesolithic;21 trapeze / 3 triangle [Araujo 1995-1997];-8.51909;38.2461;López 2015;López López-Dóriga, I., 2015. La utilización de los recursos vegetales durante el Mesolítico y Neolítico en la costa atlántica de la península ibérica (PhD in Prehistory). Universidad de Cantabria, Santander.
869;Prazo;Distrito de Guarda;Portugal;West Mediterranean;CSIC-1514;7353;50;Long;Conventional;Charcoal;Singular;n.d;;;;Complejo sector 1;SU 4 (indica Neo);Mesolithic;Late;Castelnovian B;Late Mesolithic;7 triangle / 2 segment [Monteiro 2011];-7.37305;41.14315;Monteiro 2012;Monteiro-Rodrigues, S., 2012. Novas datações pelo carbono-14 para as ocupações holocénicas do Prazo (Freixo de Numão, Vila Nova de Foz Côa, Norte de Portugal). Estud. QuaternárioQuaternary Stud. 1.
870;Prazo;Distrito de Guarda;Portugal;West Mediterranean;CSIC-1620;7608;35;Long;Conventional;Charcoal;Singular;Pinus pinea;;;;Complejo sector 1;SU 5;Mesolithic;Early;Initial Mesolithic;Early Mesolithic;;-7.37305;41.14315;Monteiro 2012;Monteiro-Rodrigues, S., 2012. Novas datações pelo carbono-14 para as ocupações holocénicas do Prazo (Freixo de Numão, Vila Nova de Foz Côa, Norte de Portugal). Estud. QuaternárioQuaternary Stud. 1.
871;Prazo;Distrito de Guarda;Portugal;West Mediterranean;CSIC-1622;7204;35;Long;Conventional;Charcoal;Singular;Quercus sp.;;;;Complejo sector 1;SU 4 (indica Neo);Mesolithic;Late;Castelnovian B;Late Mesolithic;7 triangle / 2 segment [Monteiro 2011];-7.37305;41.14315;Monteiro 2012;Monteiro-Rodrigues, S., 2012. Novas datações pelo carbono-14 para as ocupações holocénicas do Prazo (Freixo de Numão, Vila Nova de Foz Côa, Norte de Portugal). Estud. QuaternárioQuaternary Stud. 1.
872;Prazo;Distrito de Guarda;Portugal;West Mediterranean;GrA-15369;7460;60;Short;n.d;Bone;Bulk;Burned / Calcinated;;;;Complejo sector 1;SU 4a;Mesolithic;Late;Castelnovian A;Late Mesolithic;2 trapeze / 1 segment [Monteiro 2011];-7.37305;41.14315;Monteiro 2012;Monteiro-Rodrigues, S., 2012. Novas datações pelo carbono-14 para as ocupações holocénicas do Prazo (Freixo de Numão, Vila Nova de Foz Côa, Norte de Portugal). Estud. QuaternárioQuaternary Stud. 1.
873;Prazo;Distrito de Guarda;Portugal;West Mediterranean;GrA-15984;5990;50;Short;AMS;Bone;Singular;Burned / Calcinated;;;;Complejo sector 1;SU 4a;Mesolithic;Late;Castelnovian A;Late Mesolithic;2 trapeze / 1 segment [Monteiro 2011];-7.37305;41.14315;Monteiro 2012;Monteiro-Rodrigues, S., 2012. Novas datações pelo carbono-14 para as ocupações holocénicas do Prazo (Freixo de Numão, Vila Nova de Foz Côa, Norte de Portugal). Estud. QuaternárioQuaternary Stud. 1.
874;Prazo;Distrito de Guarda;Portugal;West Mediterranean;GrA-26400;6710;50;Long;Conventional;Charcoal;n.d;n.d;;;;Complejo sector 1;SU 4a;Mesolithic;Late;Castelnovian A;Late Mesolithic;2 trapeze / 1 segment [Monteiro 2011];-7.37305;41.14315;Monteiro 2012;Monteiro-Rodrigues, S., 2012. Novas datações pelo carbono-14 para as ocupações holocénicas do Prazo (Freixo de Numão, Vila Nova de Foz Côa, Norte de Portugal). Estud. QuaternárioQuaternary Stud. 1.
875;Prazo;Distrito de Guarda;Portugal;West Mediterranean;GrA-18866;6980;70;Long;AMS;Charcoal;Singular;Pinus pinea;;;;Complejo sector 1;SU 4 (indica Neo);Mesolithic;Late;Castelnovian B;Late Mesolithic;7 triangle / 2 segment [Monteiro 2011];-7.37305;41.14315;Monteiro 2012;Monteiro-Rodrigues, S., 2012. Novas datações pelo carbono-14 para as ocupações holocénicas do Prazo (Freixo de Numão, Vila Nova de Foz Côa, Norte de Portugal). Estud. QuaternárioQuaternary Stud. 1.
877;Prazo;Distrito de Guarda;Portugal;West Mediterranean;GrA-18787;6950;50;Short;AMS;Seed / Fruit;Singular;n.d;;;;Complejo sector 1;SU 4a;Mesolithic;Late;Castelnovian A;Late Mesolithic;2 trapeze / 1 segment [Monteiro 2011];-7.37305;41.14315;Monteiro 2012;Monteiro-Rodrigues, S., 2012. Novas datações pelo carbono-14 para as ocupações holocénicas do Prazo (Freixo de Numão, Vila Nova de Foz Côa, Norte de Portugal). Estud. QuaternárioQuaternary Stud. 1.
878;Prazo;Distrito de Guarda;Portugal;West Mediterranean;GrN-26398;7240;110;Long;Conventional;Charcoal;Bulk;n.d;;;;Complejo sector 1;SU 4 (indica Neo);Mesolithic;Late;Castelnovian B;Late Mesolithic;7 triangle / 2 segment [Monteiro 2011];-7.37305;41.14315;Monteiro 2012;Monteiro-Rodrigues, S., 2012. Novas datações pelo carbono-14 para as ocupações holocénicas do Prazo (Freixo de Numão, Vila Nova de Foz Côa, Norte de Portugal). Estud. QuaternárioQuaternary Stud. 1.
879;Prazo;Distrito de Guarda;Portugal;West Mediterranean;CSIC-1621;8397;38;Long;Conventional;Charcoal;Bulk;n.d;;;;Complejo sector 1;SU 5;Mesolithic;Early;Initial Mesolithic;Early Mesolithic;;-7.37305;41.14315;Monteiro 2012;Monteiro-Rodrigues, S., 2012. Novas datações pelo carbono-14 para as ocupações holocénicas do Prazo (Freixo de Numão, Vila Nova de Foz Côa, Norte de Portugal). Estud. QuaternárioQuaternary Stud. 1.
880;Prazo;Distrito de Guarda;Portugal;West Mediterranean;GrN-26402;8380;60;Long;Conventional;Charcoal;Bulk;n.d;;;;Complejo sector 1;SU 5;Mesolithic;Early;Initial Mesolithic;Early Mesolithic;;-7.37305;41.14315;Monteiro 2012;Monteiro-Rodrigues, S., 2012. Novas datações pelo carbono-14 para as ocupações holocénicas do Prazo (Freixo de Numão, Vila Nova de Foz Côa, Norte de Portugal). Estud. QuaternárioQuaternary Stud. 1.
881;Prazo;Distrito de Guarda;Portugal;West Mediterranean;Wk-16539;8259;49;Long;AMS;Charcoal;Bulk;Pinus pinea;;;;Complejo sector 1;SU 5;Mesolithic;Early;Initial Mesolithic;Early Mesolithic;;-7.37305;41.14315;Monteiro 2012;Monteiro-Rodrigues, S., 2012. Novas datações pelo carbono-14 para as ocupações holocénicas do Prazo (Freixo de Numão, Vila Nova de Foz Côa, Norte de Portugal). Estud. QuaternárioQuaternary Stud. 1.
882;Prazo;Distrito de Guarda;Portugal;West Mediterranean;Wk-16540;8435;52;Long;AMS;Charcoal;Bulk;Quercus sp.;;;;Complejo sector 1;SU 5;Mesolithic;Early;Initial Mesolithic;Early Mesolithic;;-7.37305;41.14315;Monteiro 2012;Monteiro-Rodrigues, S., 2012. Novas datações pelo carbono-14 para as ocupações holocénicas do Prazo (Freixo de Numão, Vila Nova de Foz Côa, Norte de Portugal). Estud. QuaternárioQuaternary Stud. 1.
883;Prazo;Distrito de Guarda;Portugal;West Mediterranean;GrA-15986;8370;70;Long;AMS;Charcoal;Singular;Quercus sp.;;;;Complejo sector 1;SU 6;Mesolithic;Early;Initial Mesolithic;Early Mesolithic;;-7.37305;41.14315;Monteiro 2012;Monteiro-Rodrigues, S., 2012. Novas datações pelo carbono-14 para as ocupações holocénicas do Prazo (Freixo de Numão, Vila Nova de Foz Côa, Norte de Portugal). Estud. QuaternárioQuaternary Stud. 1.
884;Prazo;Distrito de Guarda;Portugal;West Mediterranean;CSIC-1422;6502;34;Long;Conventional;Charcoal;Singular;n.d;;;;Complejo sector 7;SU 3 (indica Neo);Mesolithic;Late;Castelnovian C;Late Mesolithic;1 triangle / 1 segment [Monteiro 2011];-7.37305;41.14315;Monteiro 2012;Monteiro-Rodrigues, S., 2012. Novas datações pelo carbono-14 para as ocupações holocénicas do Prazo (Freixo de Numão, Vila Nova de Foz Côa, Norte de Portugal). Estud. QuaternárioQuaternary Stud. 1.
885;Prazo;Distrito de Guarda;Portugal;West Mediterranean;OxA-24779;7792;34;Short;AMS;Charcoal;Singular;n.d;-24.9;;;Complejo sector 1;SU 4a;Mesolithic;Late;Castelnovian A;Late Mesolithic;2 trapeze / 1 segment  [Monteiro 2011];-7.37305;41.14315;Monteiro 2012;Monteiro-Rodrigues, S., 2012. Novas datações pelo Charcoalo-14 para as ocupações holocénicas do Prazo (Freixo de Numão, Vila Nova de Foz Côa, Norte de Portugal). Estud. QuaternárioQuaternary Stud. 1.
886;Prazo;Distrito de Guarda;Portugal;West Mediterranean;OxA-24782;8317;37;Short;AMS;Charcoal;Singular;Prunus sp.;-24;;;Complejo sector 1;SU 5;Mesolithic;Early;Initial Mesolithic;Early Mesolithic;;-7.37305;41.14315;Monteiro 2012;Monteiro-Rodrigues, S., 2012. Novas datações pelo Charcoalo-14 para as ocupações holocénicas do Prazo (Freixo de Numão, Vila Nova de Foz Côa, Norte de Portugal). Estud. QuaternárioQuaternary Stud. 1.
887;Prazo;Distrito de Guarda;Portugal;West Mediterranean;OxA-24780;8332;38;Short;AMS;Charcoal;Singular;Prunus sp.;-24.9;;;Complejo sector 1;SU 5;Mesolithic;Early;Initial Mesolithic;Early Mesolithic;;-7.37305;41.14315;Monteiro 2012;Monteiro-Rodrigues, S., 2012. Novas datações pelo Charcoalo-14 para as ocupações holocénicas do Prazo (Freixo de Numão, Vila Nova de Foz Côa, Norte de Portugal). Estud. QuaternárioQuaternary Stud. 1.
924;Cabeço da Arruda;Distrito Santarem;Portugal;West Mediterranean;Beta-152956;7070;40;Short;AMS;Bone;Singular;Canis sp.;;;;;Depth of 4 meters;Mesolithic;Late;Castelnovian n.d;Late Mesolithic;Without archaeological remains;-8.70238;39.01026;Carvalho 2009;Carvalho, A.F., 2009. O Mesolítico final em Portugal, in: Utrilla, P., Montes, L. (Eds.), El Mesolítico Geométrico En La Península Ibérica. Universidad de Zaragoza, Zaragoza, pp. 33–68.
950;Rocha Gaivotas;Distrito de Faro;Portugal;West Mediterranean;Wk-13692;7092;48;Short;n.d;Shell;Bulk;Patella sp.;;;;SI;Fireplace 1;Mesolithic;Late;Castelnovian C;Late Mesolithic;1 segment [Carvalho 2008];-8.95571;37.07847;Carvalho 2008;Carvalho, A.F., 2008. A Neolitização do Portugal Meridional: Os exemplos do Maciço Calcário Estremenho e do Algarve Ocidental, Promontoria Monográfica. Universidade do Algarbe, Faro.
951;Rocha Gaivotas;Distrito de Faro;Portugal;West Mediterranean;Wk-14793;7117;38;Short;n.d;Shell;Bulk;Patella sp.;;;;SI;Fireplace 2;Mesolithic;Late;Castelnovian C;Late Mesolithic;1 segment [Carvalho 2008];-8.95571;37.07847;Carvalho 2008;Carvalho, A.F., 2008. A Neolitização do Portugal Meridional: Os exemplos do Maciço Calcário Estremenho e do Algarve Ocidental, Promontoria Monográfica. Universidade do Algarbe, Faro.
952;Rocha Gaivotas;Distrito de Faro;Portugal;West Mediterranean;Wk-14794;7201;39;Short;n.d;Shell;Bulk;Patella sp.;;;;SI;Camada 2c base;Mesolithic;Late;Castelnovian C;Late Mesolithic;1 segment [Carvalho 2008];-8.95571;37.07847;Carvalho 2008;Carvalho, A.F., 2008. A Neolitização do Portugal Meridional: Os exemplos do Maciço Calcário Estremenho e do Algarve Ocidental, Promontoria Monográfica. Universidade do Algarbe, Faro.
953;Rocha Gaivotas;Distrito de Faro;Portugal;West Mediterranean;Wk-14797;6862;43;Long;AMS;Charcoal;Singular;Juniperus sp.;;;;SI;Fireplace 2;Mesolithic;Late;Castelnovian C;Late Mesolithic;1 segment [Carvalho 2008];-8.95571;37.07847;Carvalho 2008;Carvalho, A.F., 2008. A Neolitização do Portugal Meridional: Os exemplos do Maciço Calcário Estremenho e do Algarve Ocidental, Promontoria Monográfica. Universidade do Algarbe, Faro.
954;Rocha Gaivotas;Distrito de Faro;Portugal;West Mediterranean;Wk-14798;6820;51;Long;AMS;Charcoal;Singular;Pistacea sp.;;;;SII;Fireplace 3;Mesolithic;Late;Castelnovian C;Late Mesolithic;5 flakes [Carvalho 2008];-8.95571;37.07847;Carvalho 2008;Carvalho, A.F., 2008. A Neolitização do Portugal Meridional: Os exemplos do Maciço Calcário Estremenho e do Algarve Ocidental, Promontoria Monográfica. Universidade do Algarbe, Faro.
956;Rocha Gaivotas;Distrito de Faro;Portugal;West Mediterranean;Wk-6075;7270;70;Short;n.d;Shell;Bulk;Patella sp.;;;;SI;Test 1;Mesolithic;Late;Castelnovian C;Late Mesolithic;1 segment [Carvalho 2008];-8.95571;37.07847;Carvalho 2008;Carvalho, A.F., 2008. A Neolitização do Portugal Meridional: Os exemplos do Maciço Calcário Estremenho e do Algarve Ocidental, Promontoria Monográfica. Universidade do Algarbe, Faro.
957;Rocha Gaivotas;Distrito de Faro;Portugal;West Mediterranean;Wk-16424;8420;46;Short;n.d;Shell;Bulk;Mytilus sp.;;;;SI;Camada 3a;Mesolithic;Early;Initial Mesolithic;Early Mesolithic;111 flakes [Carvalho 2008];-8.95571;37.07847;Carvalho 2008;Carvalho, A.F., 2008. A Neolitização do Portugal Meridional: Os exemplos do Maciço Calcário Estremenho e do Algarve Ocidental, Promontoria Monográfica. Universidade do Algarbe, Faro.
958;Rocha Gaivotas;Distrito de Faro;Portugal;West Mediterranean;Wk-16426;8427;51;Short;n.d;Shell;Bulk;Mytilus sp.;;;;SV;Camada 3;Mesolithic;Early;Initial Mesolithic;Early Mesolithic;;-8.95571;37.07847;Carvalho 2008;Carvalho, A.F., 2008. A Neolitização do Portugal Meridional: Os exemplos do Maciço Calcário Estremenho e do Algarve Ocidental, Promontoria Monográfica. Universidade do Algarbe, Faro.
959;Rocha Gaivotas;Distrito de Faro;Portugal;West Mediterranean;Wk-16425;8673;78;Short;n.d;Shell;Bulk;n.d;;;;SIII;Camada 3b  Hearth 5;Mesolithic;Early;Initial Mesolithic;Early Mesolithic;;-8.95571;37.07847;Carvalho 2008;Carvalho, A.F., 2008. A Neolitização do Portugal Meridional: Os exemplos do Maciço Calcário Estremenho e do Algarve Ocidental, Promontoria Monográfica. Universidade do Algarbe, Faro.
960;Rocha Gaivotas;Distrito de Faro;Portugal;West Mediterranean;Wk-13690;8674;52;Short;Conventional;Shell;Bulk;Monotonda turbinata;;;;SIII;Camada 3b;Mesolithic;Early;Initial Mesolithic;Early Mesolithic;;-8.95571;37.07847;Carvalho 2008;Carvalho, A.F., 2008. A Neolitização do Portugal Meridional: Os exemplos do Maciço Calcário Estremenho e do Algarve Ocidental, Promontoria Monográfica. Universidade do Algarbe, Faro.
961;Rocha Gaivotas;Distrito de Faro;Portugal;West Mediterranean;Wk-13691;8965;54;Short;Conventional;Shell;Bulk;Patella sp.;;;;SIII;Camada 3d Hearth 4;Mesolithic;Early;Initial Mesolithic;Early Mesolithic;;-8.95571;37.07847;Carvalho 2008;Carvalho, A.F., 2008. A Neolitização do Portugal Meridional: Os exemplos do Maciço Calcário Estremenho e do Algarve Ocidental, Promontoria Monográfica. Universidade do Algarbe, Faro.
968;Samouqueira I;Distrito de Setúbal;Portugal;West Mediterranean;ICEN-729;7520;60;Short;Conventional;Shell;Bulk;Patella sp.;-0.06;;;Level 3;Sector XII  (square D19);Mesolithic;Late;Castelnovian A;Late Mesolithic;4 trapeze /  1 triangle [Soares 1995];-8.85659;37.95924;Carvalho 2009;Carvalho, A.F., 2009. O Mesolítico final em Portugal, in: Utrilla, P., Montes, L. (Eds.), El Mesolítico Geométrico En La Península Ibérica. Universidad de Zaragoza, Zaragoza, pp. 33–68.
969;Samouqueira I;Distrito de Setúbal;Portugal;West Mediterranean;TO-130;6370;70;Short;Conventional;Bone;Singular;Human;-15.3;16.5;;Level 2;F20;Mesolithic;Late;Castelnovian A;Late Mesolithic;* Out;-8.85659;37.95924;Zilhao 2000;Zilhão, J., 2000. From the mesolithic to the neolithic in the Iberian peninsular, in: Douglas, P.T. (Ed.), Europe’s First Farmers. The press syndicate of the University of Cambrigde, Cambridge, pp. 144–182.
970;Samouqueira I;Distrito de Setúbal;Portugal;West Mediterranean;ICEN-1233;7590;60;Short;Conventional;Shell;Singular;Thais haemostoma;0.39;;;Level 3;Sector XII;Mesolithic;Late;Castelnovian A;Late Mesolithic;4 trapeze /  1 triangle [Soares 1995];-8.85659;37.95924;Soares y Silva 2017;Soares, J., Tavares da Silva, C., 2017. Living in the southwest Portuguese coast during the Late Mesolithic: The case study of Vale Marim I. J. Archaeol. Sci. Rep. https://doi.org/10.1016/j.jasrep.2017.11.019
971;Samouqueira I;Distrito de Setúbal;Portugal;West Mediterranean;ICEN-1232;7550;60;Short;Conventional;Shell;Singular;Patella sp.;0;;;Level 3;Sector XII;Mesolithic;Late;Castelnovian A;Late Mesolithic;4 trapeze /  1 triangle [Soares 1995];-8.85659;37.95924;Soares y Silva 2017;Soares, J., Tavares da Silva, C., 2017. Living in the southwest Portuguese coast during the Late Mesolithic: The case study of Vale Marim I. J. Archaeol. Sci. Rep. https://doi.org/10.1016/j.jasrep.2017.11.019
972;Samouqueira I;Distrito de Setúbal;Portugal;West Mediterranean;Beta-452075;7120;30;Short;AMS;Bone;Singular;Wildlife / fauna;-20.6;;;Level 3;Sector XII (square D18);Mesolithic;Late;Castelnovian A;Late Mesolithic;4 trapeze /  1 triangle [Soares 1995];-8.85659;37.95924;Soares y Silva 2017;Soares, J., Tavares da Silva, C., 2017. Living in the southwest Portuguese coast during the Late Mesolithic: The case study of Vale Marim I. J. Archaeol. Sci. Rep. https://doi.org/10.1016/j.jasrep.2017.11.019
973;Samouqueira I;Distrito de Setúbal;Portugal;West Mediterranean;OxA-36994;6995;36;Short;AMS;Shell;Singular;Patella;;;;Level 2;H1 (burial 1 context);Mesolithic;Late;Castelnovian A;Late Mesolithic;Without archaeological context;-8.85659;37.95924;Jackes et al. 2019;Jackes, M., Lubell, D., Meiklejohn, C., Schulting, R., Arias Cabal, P., 2019. New analyses and dating of partial skeletons from Samouqueira I, Portugal. Mesolithic Miscellany 27, 3–23.
974;Samouqueira I;Distrito de Setúbal;Portugal;West Mediterranean;OxA-36936;7015;38;Short;AMS;Bone;Singular;Human;-15.2;15.7;3.3;Level 2;Burial 2 (metacarpio);Mesolithic;Late;Castelnovian A;Late Mesolithic;Without archaeological context;-8.85659;37.95924;Jackes et al. 2019;Jackes, M., Lubell, D., Meiklejohn, C., Schulting, R., Arias Cabal, P., 2019. New analyses and dating of partial skeletons from Samouqueira I, Portugal. Mesolithic Miscellany 27, 3–23.
976;São Julião;Distrito de Lisboa;Portugal;West Mediterranean;Sac-1721;7650;80;Short;n.d;Shell;n.d;Cerastodema edule;;;;;Sheelmidden C;Mesolithic;Late;Castelnovian A;Late Mesolithic;1 trapeze [Sousa & Soares 2016];-9.33112;38.92688;Carvalho 2009;Carvalho, A.F., 2009. O Mesolítico final em Portugal, in: Utrilla, P., Montes, L. (Eds.), El Mesolítico Geométrico En La Península Ibérica. Universidad de Zaragoza, Zaragoza, pp. 33–68.
977;São Julião;Distrito de Lisboa;Portugal;West Mediterranean;Sac-1724;7630;60;Short;n.d;Shell;n.d;Cerastodema edule;;;;;Sheelmidden C;Mesolithic;Late;Castelnovian A;Late Mesolithic;1 trapeze [Sousa & Soares 2016];-9.33112;38.92688;Carvalho 2009;Carvalho, A.F., 2009. O Mesolítico final em Portugal, in: Utrilla, P., Montes, L. (Eds.), El Mesolítico Geométrico En La Península Ibérica. Universidad de Zaragoza, Zaragoza, pp. 33–68.
978;São Julião;Distrito de Lisboa;Portugal;West Mediterranean;Sac-1796;7520;70;Short;n.d;Shell;n.d;Cerastodema edule;;;;;Sheelmidden C;Mesolithic;Late;Castelnovian A;Late Mesolithic;1 trapeze [Sousa & Soares 2016];-9.33112;38.92688;Carvalho 2009;Carvalho, A.F., 2009. O Mesolítico final em Portugal, in: Utrilla, P., Montes, L. (Eds.), El Mesolítico Geométrico En La Península Ibérica. Universidad de Zaragoza, Zaragoza, pp. 33–68.
979;São Julião;Distrito de Lisboa;Portugal;West Mediterranean;Sac-1801;7460;60;Short;n.d;Shell;n.d;Cerastodema edule;;;;;Sheelmidden C;Mesolithic;Late;Castelnovian A;Late Mesolithic;1 trapeze [Sousa & Soares 2016];-9.33112;38.92688;Carvalho 2009;Carvalho, A.F., 2009. O Mesolítico final em Portugal, in: Utrilla, P., Montes, L. (Eds.), El Mesolítico Geométrico En La Península Ibérica. Universidad de Zaragoza, Zaragoza, pp. 33–68.
980;São Julião;Distrito de Lisboa;Portugal;West Mediterranean;Sac-1803;7200;90;Short;n.d;Shell;n.d;Ruditapes sp.;;;;;Sheelmidden C;Mesolithic;Late;Castelnovian A;Late Mesolithic;1 trapeze [Sousa & Soares 2016];-9.33112;38.92688;Carvalho 2009;Carvalho, A.F., 2009. O Mesolítico final em Portugal, in: Utrilla, P., Montes, L. (Eds.), El Mesolítico Geométrico En La Península Ibérica. Universidad de Zaragoza, Zaragoza, pp. 33–68.
981;São Julião;Distrito de Lisboa;Portugal;West Mediterranean;ICEN-73;7610;80;Long;Conventional;Charcoal;n.d;n.d;;;;E.1.1;Sheelmidden A;Mesolithic;Late;Castelnovian A;Late Mesolithic;Prismatic core for blade / bladetes [Sousa & Soares 2016];-9.33112;39.08332;Bicho et al 2010;"Bicho, N., Umbelino, C., Detry, C., Pereira, T., 2010. The emergence of Muge Mesolithic shell middens in Central Portugal and the 8200 cal yr BP cold cvent. The Journal of Island and Coastal Archaeology, 5, 86104. 
https://doi.org/10.1080/15564891003638184"
982;Sao Pedro de Canaferrim;Distrito de Lisboa;Portugal;West Mediterranean;Beta-164712;7750;50;Short;AMS;Charcoal;Singular;Erica umbellata;;;;-;75;Mesolithic;Late;Castelnovian A;Late Mesolithic;Without archaeological context (Neolithic?);-9.39234;38.76661;López 2015;López López-Dóriga, I., 2015. La utilización de los recursos vegetales durante el Mesolítico y Neolítico en la costa atlántica de la península ibérica (PhD in Prehistory). Universidad de Cantabria, Santander.
1063;Toledo;Distrito de Setúbal;Portugal;West Mediterranean;TO-707;7800;110;Short;AMS;Bone;n.d;n.d;;;;Pandeiro 1;;Mesolithic;Early;Initial Mesolithic;Early Mesolithic;Flakes [Araujo 2011, monograph];-9.0166;39.4666;Marques-Gabriel 2015;Marques-Gabriel, S. 2015. La ictiofauna del Holoceno Inicial y Medio de Portugal Implicaciones tafonómicas, ecológicas y culturales. Universidad Autónoma de Madrid.
1073;Vale Boi;Distrito de Faro;Portugal;West Mediterranean;TO-12197;7500;90;Short;AMS;Bone;Singular;Human;-18.3;11.6;2.9;Terrace context;Layer 2 Burial 1;Mesolithic;Late;Castelnovian A;Late Mesolithic;Without archaeological context;-8.89574;37.05926;Carvalho 2009;Carvalho, A.F., 2009. O Mesolítico final em Portugal, in: Utrilla, P., Montes, L. (Eds.), El Mesolítico Geométrico En La Península Ibérica. Universidad de Zaragoza, Zaragoza, pp. 33–68.
1074;Vale da Fonte Moça;Distrito Santarem;Portugal;West Mediterranean;TO-11863;6650;60;Short;AMS;Bone;Bulk;Leporidae sp. + Sus sp.;;;;-;100-120;Mesolithic;Late;Castelnovian C;Late Mesolithic;* similar proportion of triangles and segments (+0.7%);-9.0166;38847;Carvalho 2008;Carvalho, A.F., 2008. A Neolitização do Portugal Meridional: Os exemplos do Maciço Calcário Estremenho e do Algarve Ocidental, Promontoria Monográfica. Universidade do Algarbe, Faro.
1075;Vale da Fonte Moça;Distrito Santarem;Portugal;West Mediterranean;TO-11864;6890;140;Short;AMS;Bone;Bulk;Mammal + bird;;;;-;50-60;Mesolithic;Late;Castelnovian C;Late Mesolithic;* similar proportion of triangles and segments (+0.7%);-9.0166;38847;Carvalho 2008;Carvalho, A.F., 2008. A Neolitização do Portugal Meridional: Os exemplos do Maciço Calcário Estremenho e do Algarve Ocidental, Promontoria Monográfica. Universidade do Algarbe, Faro.
1076;Vale de Cerdeira;Distrito de Braganza;Portugal;West Mediterranean;GrN-25614;6240;50;Long;Conventional;Charcoal;n.d;n.d;;;;Hearth;UE 1;Mesolithic;Late;Castelnovian C;Late Mesolithic;37 trapeze /  55 segment [Xavier et al. 2020];-8.1459;41.6327;Meireles 2010;Meireles, J., 2010. Os últimos caçadores-recolectores da serra da Cabreira (NO de Portugal). O Abrigo 1 de Vale de Cerdeira (Vieira do Minho), in: Bettencourt, L.M.A., Caetano, A., Monteiro-Rodrigues, S. (Eds.), Variaçoes Paleoambientais e Evoluçao Antrópica No Quaternário Do Ocidente Peninsular. APEQ – Associação Portuguesa para o Estudo do Quaternário, Braga, pp. 83–96.
1077;Vale de Cerdeira;Distrito de Braganza;Portugal;West Mediterranean;GrN-25613;6090;40;Long;Conventional;Charcoal;n.d;n.d;;;;Hearth;UE 1;Mesolithic;Late;Castelnovian C;Late Mesolithic;37 trapeze /  55 segment [Xavier et al. 2020];-8.1459;41.6327;Mereiles 2010;Meireles, J., 2010. Os últimos caçadores-recolectores da serra da Cabreira (NO de Portugal). O Abrigo 1 de Vale de Cerdeira (Vieira do Minho), in: Bettencourt, L.M.A., Caetano, A., Monteiro-Rodrigues, S. (Eds.), Variaçoes Paleoambientais e Evoluçao Antrópica No Quaternário Do Ocidente Peninsular. APEQ – Associação Portuguesa para o Estudo do Quaternário, Braga, pp. 83–96.
1078;Vale de Romeiras;Distrito de Setúbal;Portugal;West Mediterranean;ICEN-146;6970;70;Short;Conventional;Shell;Bulk;n.d;;;;Middle;;Mesolithic;Late;Castelnovian A;Late Mesolithic;* calibration between A & B;-8.42623;38.3538;Carvalho 2008;Carvalho, A.F., 2008. A Neolitização do Portugal Meridional: Os exemplos do Maciço Calcário Estremenho e do Algarve Ocidental, Promontoria Monográfica. Universidade do Algarbe, Faro.
1079;Vale de Romeiras;Distrito de Setúbal;Portugal;West Mediterranean;ICEN-150;7390;80;Short;Conventional;Shell;Bulk;n.d;;;;Middle;Layer 2;Mesolithic;Late;Castelnovian A;Late Mesolithic;High presence of trapezes [Arnaud 2000];-8.42623;38.3538;Zilhao 2000;Zilhão, J., 2000. From the mesolithic to the neolithic in the Iberian peninsular, in: Douglas, P.T. (Ed.), Europe’s First Farmers. The press syndicate of the University of Cambrigde, Cambridge, pp. 144–182.
1080;Vale de Romeiras;Distrito de Setúbal;Portugal;West Mediterranean;ICEN-144;7130;110;Short;Conventional;Bone;Bulk;n.d;;;;Middle;Layer 2;Mesolithic;Late;Castelnovian A;Late Mesolithic;High presence of trapezes [Arnaud 2000];-8.42623;38.3538;Zilhao 2000;Zilhão, J., 2000. From the mesolithic to the neolithic in the Iberian peninsular, in: Douglas, P.T. (Ed.), Europe’s First Farmers. The press syndicate of the University of Cambrigde, Cambridge, pp. 144–182.
1081;Vale de Romeiras;Distrito de Setúbal;Portugal;West Mediterranean;Ua-47983;6625;51;Short;AMS;Bone;Singular;Human;-20.5;7.7;3.4;;Burial 9 / layer 6;Mesolithic;Late;Castelnovian C;Late Mesolithic;* based on calibration;-8.42623;38.3538;Peyroteo-Stjerna 2016;Peyroteo-Stjerna , R., 2016. Death in the Mesolithic or the Mortuary Practices of the Last Hunter-Gatherers of the South-Western Iberian Peninsula, 7th–6th Millennium BCE, Occasional papers of Archaeology. University of Uppsala.
1082;Vale de Romeiras;Distrito de Setúbal;Portugal;West Mediterranean;Ua-46972;7640;55;Short;AMS;Bone;Singular;Human;-20.2;8.7;3.2;;Burial 19 / layer 5;Mesolithic;Late;Castelnovian A;Late Mesolithic;High presence of trapezes [Arnaud 2000];-8.42623;38.3538;Peyroteo-Stjerna 2016;Peyroteo-Stjerna , R., 2016. Death in the Mesolithic or the Mortuary Practices of the Last Hunter-Gatherers of the South-Western Iberian Peninsula, 7th–6th Millennium BCE, Occasional papers of Archaeology. University of Uppsala.
1083;Vale Marim;Distrito de Setúbal;Portugal;West Mediterranean;Beta-417016;7180;30;Long;AMS;Charcoal;Bulk;n.d;;;;2A;;Mesolithic;Late;Castelnovian A;Late Mesolithic;90% trapezes [Soares & Tavares 2018];-8.8304;37.9568;Soares et al. 2017;Soares, J., Mazzucco, N., Tavares da Silva, C., 2017. Marine adaptations in the Late Mesolithic of the Portuguese southwest coast: use-wear analysis of the lithic industry of Vale Marim I. Rev. Port. Arqueol. 20, 31–44.
1084;Vale Marim;Distrito de Setúbal;Portugal;West Mediterranean;Beta-373853;7170;40;Long;AMS;Charcoal;Singular;Arbutus unedo;;;;2A;;Mesolithic;Late;Castelnovian A;Late Mesolithic;90% trapezes [Soares & Tavares 2018];-8.8304;37.9568;Soares et al. 2017;Soares, J., Mazzucco, N., Tavares da Silva, C., 2017. Marine adaptations in the Late Mesolithic of the Portuguese southwest coast: use-wear analysis of the lithic industry of Vale Marim I. Rev. Port. Arqueol. 20, 31–44.
1085;Vale Marim;Distrito de Setúbal;Portugal;West Mediterranean;Beta-417015;7020;30;Long;AMS;Charcoal;Singular;Pinus sp.;;;;2A;;Mesolithic;Late;Castelnovian A;Late Mesolithic;90% trapezes [Soares & Tavares 2018];-8.8304;37.9568;Soares et al. 2017;Soares, J., Mazzucco, N., Tavares da Silva, C., 2017. Marine adaptations in the Late Mesolithic of the Portuguese southwest coast: use-wear analysis of the lithic industry of Vale Marim I. Rev. Port. Arqueol. 20, 31–44.
1089;Varzea de Mo;Distrito de Setúbal;Portugal;West Mediterranean;ICEN-273;6730;60;Short;Conventional;Shell;Bulk;n.d;;;;Middle;;Mesolithic;Late;Castelnovian C;Late Mesolithic;13 trapeze / 4 triangle /  40 segment [Marchand 2001];-8.42558;38.39859;Carvalho 2008;Carvalho, A.F., 2008. A Neolitização do Portugal Meridional: Os exemplos do Maciço Calcário Estremenho e do Algarve Ocidental, Promontoria Monográfica. Universidade do Algarbe, Faro.
1090;Varzea de Mo;Distrito de Setúbal;Portugal;West Mediterranean;Ua-46310;6305;44;Short;AMS;Bone;Singular;Human;-20.5;8.1;3.6;Bottom;Burial 1;Mesolithic;Late;Castelnovian C;Late Mesolithic;13 trapeze / 4 triangle /  40 segment [Marchand 2001];-8.42558;38.39859;Peyroteo-Stjerna 2016;Peyroteo-Stjerna , R., 2016. Death in the Mesolithic or the Mortuary Practices of the Last Hunter-Gatherers of the South-Western Iberian Peninsula, 7th–6th Millennium BCE, Occasional papers of Archaeology. University of Uppsala.
1095;Vidigal;Distrito de Faro;Portugal;West Mediterranean;Ly-4695;6640;90;Short;Conventional;Bone;n.d;Human;;;;Level 3;;Mesolithic;Late;Castelnovian C;Late Mesolithic;7 trapeze / 4 triangle /  18 segment [Vierra 1992];-8.69914;37.79517;Zilhao 2000;Zilhão, J., 2000. From the mesolithic to the neolithic in the Iberian peninsular, in: Douglas, P.T. (Ed.), Europe’s First Farmers. The press syndicate of the University of Cambrigde, Cambridge, pp. 144–182.
1097;Vidigal;Distrito de Faro;Portugal;West Mediterranean;Beta-452078;6800;30;Short;AMS;Bone;Singular;Cervus elaphus;21.1;;;Level 4;;Mesolithic;Late;Castelnovian C;Late Mesolithic;7 trapeze / 4 triangle /  18 segment [Vierra 1992];-8.69914;37.79517;Soares y Silva 2017;Soares, J., Tavares da Silva, C., 2017. Living in the southwest Portuguese coast during the Late Mesolithic: The case study of Vale Marim I. J. Archaeol. Sci. Rep. https://doi.org/10.1016/j.jasrep.2017.11.019
3638;Moita da Sebastiao;Distrito de Setúbal;Portugal;West Mediterranean;Beta-447682;7280;40;Short;AMS;Bone;Singular;Human;-17.4;10.4;3.3;Basal Sand;Burial 7;Mesolithic;Late;Castelnovian A;Late Mesolithic;302 trapeze / 9 triangle [Roche 1960] * General lithic overview;-8.5607;39.11194;Peyroteo-Stjerna 2021;Peyroteo-Stjerna, R., 2021. Chronology of the burial activity of the last hunter-gatherers in the southwestern Iberian peninsula, Portugal. Radiocarbon 63(1) 265-299
3639;Cabeço da Amoreira;Distrito Santarem;Portugal;West Mediterranean;Beta-447686;6770;40;Short;AMS;Bone;Singular;Human;-15.7;13;3.4;Upper layer / Burial 3;;Mesolithic;Late;Castelnovian B;Late Mesolithic;without archaeological remains relation;-8.48635;39.12782;Peyroteo-Stjerna 2021;Peyroteo-Stjerna, R., 2021. Chronology of the burial activity of the last hunter-gatherers in the southwestern Iberian peninsula, Portugal. Radiocarbon 63(1) 265-299
3640;Cabeço da Amoreira;Distrito Santarem;Portugal;West Mediterranean;UOC-913;7341;53;Short;AMS;Bone;Singular;Human;-15.7;12.5;3.2;Burial CAM-00-01 / Jean Roche area (below shellmidden);;Mesolithic;Late;Castelnovian B;Late Mesolithic;without archaeological remains relation;-8.48635;39.12782;Peyroteo-Stjerna 2021;Peyroteo-Stjerna, R., 2021. Chronology of the burial activity of the last hunter-gatherers in the southwestern Iberian peninsula, Portugal. Radiocarbon 63(1) 265-299
3641;Cabeço da Amoreira;Distrito Santarem;Portugal;West Mediterranean;Beta-447683;6890;30;Short;AMS;Bone;Singular;Human;-15.3;16.1;3.3;Basal sand / 1;;Mesolithic;Late;Castelnovian B;Late Mesolithic;without archaeological remains relation;-8.48635;39.12782;Peyroteo-Stjerna 2021;Peyroteo-Stjerna, R., 2021. Chronology of the burial activity of the last hunter-gatherers in the southwestern Iberian peninsula, Portugal. Radiocarbon 63(1) 265-299
3642;Cabeço da Amoreira;Distrito Santarem;Portugal;West Mediterranean;Ua-58119;6805;35;Short;AMS;Bone;Singular;Human;-18.9;9.6;3.3;Upper layer / 2?;;Mesolithic;Late;Castelnovian B;Late Mesolithic;without archaeological remains relation;-8.48635;39.12782;Peyroteo-Stjerna 2021;Peyroteo-Stjerna, R., 2021. Chronology of the burial activity of the last hunter-gatherers in the southwestern Iberian peninsula, Portugal. Radiocarbon 63(1) 265-299
3643;Cabeço da Amoreira;Distrito Santarem;Portugal;West Mediterranean;Beta-447685;6970;30;Short;AMS;Bone;Singular;Human;-16.4;11.9;3.3;Upper layer / 10;;Mesolithic;Late;Castelnovian B;Late Mesolithic;without archaeological remains relation;-8.48635;39.12782;Peyroteo-Stjerna 2021;Peyroteo-Stjerna, R., 2021. Chronology of the burial activity of the last hunter-gatherers in the southwestern Iberian peninsula, Portugal. Radiocarbon 63(1) 265-299
3644;Cabeço da Amoreira;Distrito Santarem;Portugal;West Mediterranean;Beta-447688;7040;30;Short;AMS;Bone;Singular;Human;-15.3;13;3.3;Upper layer / 3?;;Mesolithic;Late;Castelnovian B;Late Mesolithic;without archaeological remains relation;-8.48635;39.12782;Peyroteo-Stjerna 2021;Peyroteo-Stjerna, R., 2021. Chronology of the burial activity of the last hunter-gatherers in the southwestern Iberian peninsula, Portugal. Radiocarbon 63(1) 265-299
3645;Cabeço da Amoreira;Distrito Santarem;Portugal;West Mediterranean;Ua-56456;6984;32;Short;AMS;Bone;Singular;Human;-16.4;13.8;3.4;1.3 from top / 6;;Mesolithic;Late;Castelnovian B;Late Mesolithic;without archaeological remains relation;-8.48635;39.12782;Peyroteo-Stjerna 2021;Peyroteo-Stjerna, R., 2021. Chronology of the burial activity of the last hunter-gatherers in the southwestern Iberian peninsula, Portugal. Radiocarbon 63(1) 265-299
3646;Cabeço da Amoreira;Distrito Santarem;Portugal;West Mediterranean;Wk-35718;7056;34;Short;AMS;Bone;Singular;Human;-15.4;13.3;3.3;2b Burial 2012.3;;Mesolithic;Late;Castelnovian B;Late Mesolithic;without archaeological remains relation;-8.48635;39.12782;Peyroteo-Stjerna 2021;Peyroteo-Stjerna, R., 2021. Chronology of the burial activity of the last hunter-gatherers in the southwestern Iberian peninsula, Portugal. Radiocarbon 63(1) 265-299
3647;Cabeço da Amoreira;Distrito Santarem;Portugal;West Mediterranean;Beta-447687;7090;40;Short;AMS;Bone;Singular;Human;-15.9;12.4;3.3;;;Mesolithic;Late;Castelnovian B;Late Mesolithic;without archaeological remains relation;-8.48635;39.12782;Peyroteo-Stjerna 2021;Peyroteo-Stjerna, R., 2021. Chronology of the burial activity of the last hunter-gatherers in the southwestern Iberian peninsula, Portugal. Radiocarbon 63(1) 265-299
3648;Cabeço da Amoreira;Distrito Santarem;Portugal;West Mediterranean;Beta-447684;7160;40;Short;AMS;Bone;Singular;Human;-16.3;11.9;3.3;Deep layer / 9;;Mesolithic;Late;Castelnovian B;Late Mesolithic;without archaeological remains relation;-8.48635;39.12782;Peyroteo-Stjerna 2021;Peyroteo-Stjerna, R., 2021. Chronology of the burial activity of the last hunter-gatherers in the southwestern Iberian peninsula, Portugal. Radiocarbon 63(1) 265-299
3649;Cabeço da Arruda;Distrito Santarem;Portugal;West Mediterranean;Beta-447681;7070;40;Short;AMS;Bone;Singular;Human;-17;11.3;3.3;Basal sand (Layer D);Burial 3 (89 Roche);Mesolithic;Late;Castelnovian n.d;Late Mesolithic;;-8.52185;39.1868;Peyroteo-Stjerna 2021;Peyroteo-Stjerna, R., 2021. Chronology of the burial activity of the last hunter-gatherers in the southwestern Iberian peninsula, Portugal. Radiocarbon 63(1) 265-299
3650;Cabeço da Arruda;Distrito Santarem;Portugal;West Mediterranean;Beta-447680;7260;30;Short;AMS;Bone;Singular;Human;-18.1;10.9;3.2;0.30 from bottom;Burial 8 (layer 87-89 Roche);Mesolithic;Late;Castelnovian n.d;Late Mesolithic;;-8.52185;39.1868;Peyroteo-Stjerna 2021;Peyroteo-Stjerna, R., 2021. Chronology of the burial activity of the last hunter-gatherers in the southwestern Iberian peninsula, Portugal. Radiocarbon 63(1) 265-299
3651;Cabeço da Arruda;Distrito Santarem;Portugal;West Mediterranean;Ua-56457;6647;32;Short;AMS;Bone;Singular;Human;-18.3;13.6;3.6;unknown;Burial B;Mesolithic;Late;Castelnovian n.d;Late Mesolithic;;-8.52185;39.1868;Peyroteo-Stjerna 2021;Peyroteo-Stjerna, R., 2021. Chronology of the burial activity of the last hunter-gatherers in the southwestern Iberian peninsula, Portugal. Radiocarbon 63(1) 265-299
3652;Cova da Onça;Distrito Santarem;Portugal;West Mediterranean;Beta-447677;6680;30;Short;AMS;Bone;Singular;Human;-15.7;13.5;3.4;Unknown;;Mesolithic;Late;Castelnovian B;Late Mesolithic;2 trapeze / 3 triangles [ Paço 1938];-8.71517;39.06579;Peyroteo-Stjerna 2021;Peyroteo-Stjerna, R., 2021. Chronology of the burial activity of the last hunter-gatherers in the southwestern Iberian peninsula, Portugal. Radiocarbon 63(1) 265-299
3653;Cova da Onça;Distrito Santarem;Portugal;West Mediterranean;Beta-447674;6660;40;Short;AMS;Bone;Singular;Human;-14.9;13.6;3.4;Unknown;;Mesolithic;Late;Castelnovian B;Late Mesolithic;2 trapeze / 3 triangles [ Paço 1938];-8.71517;39.06579;Peyroteo-Stjerna 2021;Peyroteo-Stjerna, R., 2021. Chronology of the burial activity of the last hunter-gatherers in the southwestern Iberian peninsula, Portugal. Radiocarbon 63(1) 265-299
3654;Cova da Onça;Distrito Santarem;Portugal;West Mediterranean;Beta-447675;6830;40;Short;AMS;Bone;Singular;Human;-15.8;13.2;3.3;Unknown;;Mesolithic;Late;Castelnovian B;Late Mesolithic;2 trapeze / 3 triangles [ Paço 1938];-8.71517;39.06579;Peyroteo-Stjerna 2021;Peyroteo-Stjerna, R., 2021. Chronology of the burial activity of the last hunter-gatherers in the southwestern Iberian peninsula, Portugal. Radiocarbon 63(1) 265-299
3655;Cova da Onça;Distrito Santarem;Portugal;West Mediterranean;Beta-447676;7170;40;Short;AMS;Bone;Singular;Human;-16.1;11.9;3.3;Unknown;;Mesolithic;Late;Castelnovian B;Late Mesolithic;2 trapeze / 3 triangles [ Paço 1938];-8.71517;39.06579;Peyroteo-Stjerna 2021;Peyroteo-Stjerna, R., 2021. Chronology of the burial activity of the last hunter-gatherers in the southwestern Iberian peninsula, Portugal. Radiocarbon 63(1) 265-299
3656;Arapouco;Distrito de Lisboa;Portugal;West Mediterranean;Beta-447689;7230;30;Short;AMS;Bone;Singular;Human;-17;12.5;3.4;Unknown;Burial 2A;Mesolithic;Late;Castelnovian A;Late Mesolithic;83 trapeze / 11 triangle / 7 segment / 5 nd [Diniz y Nukushina 2012];-8.51006;38.31013;Peyroteo-Stjerna 2021;Peyroteo-Stjerna, R., 2021. Chronology of the burial activity of the last hunter-gatherers in the southwestern Iberian peninsula, Portugal. Radiocarbon 63(1) 265-299
3657;Cabeço do Pez;Distrito de Setúbal;Portugal;West Mediterranean;Beta-447690;6860;40;Short;AMS;Bone;Singular;Human;-18.3;11.4;3.3;Layer 4 (Santos et al. 1974);Burial 4, Burial area A;Mesolithic;Late;Castelnovian B;Late Mesolithic;5 trapeze / 7 triangle / 1 segment  [Santos et al. 1974];-8.42844;38.3528;Peyroteo-Stjerna 2021;Peyroteo-Stjerna, R., 2021. Chronology of the burial activity of the last hunter-gatherers in the southwestern Iberian peninsula, Portugal. Radiocarbon 63(1) 265-299
3658;Fiais;Distrito de Faro;Portugal;West Mediterranean;Ua-59360;7038;38;Short;AMS;Bone;Singular;Human;-14.2;13.8;3.3;Northern block;XIV (Square E10) Burial 1;Mesolithic;Late;Castelnovian B;Late Mesolithic;6 trapeze / 9 triangle / 4 segment [Vierra 1995];-8.66771;37.51617;Peyroteo-Stjerna 2021;Peyroteo-Stjerna, R., 2021. Chronology of the burial activity of the last hunter-gatherers in the southwestern Iberian peninsula, Portugal. Radiocarbon 63(1) 265-299
3843;Baume Montclus;R. Languedoc-Roussillon;France;West Mediterranean;Beta-428659;7830;30;Short;AMS;Bone;Singular;Capreolus capreolus;;;;Layer 18;L18;Mesolithic;Early;Indeterminate;Early Mesolithic;Denticulates;4.42;44.27;Defranould et al. 2022;Defranould, E., Philibert, S., Perrin, T. 2022. Evolutionary dynamics of Armatures in Southern France in the Late Mesolithic and Early Neolithic. Open Archaeology 8: 905-924
3844;Baume Montclus;R. Languedoc-Roussillon;France;West Mediterranean;Beta-432166;7760;30;Short;AMS;Seed / Fruit;Singular;Vitis sp.;;;;Layer 16;L16;Mesolithic;Early / Late;Mixed cultural horizons;Early / Late Mesolithic;34 BG2 / Denticulates;4.42;44.27;Defranould et al. 2022;Defranould, E., Philibert, S., Perrin, T. 2022. Evolutionary dynamics of Armatures in Southern France in the Late Mesolithic and Early Neolithic. Open Archaeology 8: 905-924
3845;Baume Montclus;R. Languedoc-Roussillon;France;West Mediterranean;Ly-542;7540;160;Short;AMS;Bone;Singular;Wildlife / fauna;;;;Layer 16;L16;Mesolithic;Early / Late;Mixed cultural horizons;Early / Late Mesolithic;34 BG2 / Denticulates;4.42;44.27;Defranould et al. 2022;Defranould, E., Philibert, S., Perrin, T. 2022. Evolutionary dynamics of Armatures in Southern France in the Late Mesolithic and Early Neolithic. Open Archaeology 8: 905-924
3846;Baume Montclus;R. Languedoc-Roussillon;France;West Mediterranean;Ly-496;7020;140;Long;Conventional;Sediment;Bulk;Organic material;;;;Layer 14;L14;Mesolithic;Late;Castelnovian A;Late Mesolithic;62 BG1;4.42;44.27;Defranould et al. 2022;Defranould, E., Philibert, S., Perrin, T. 2022. Evolutionary dynamics of Armatures in Southern France in the Late Mesolithic and Early Neolithic. Open Archaeology 8: 905-924
3847;Baume Montclus;R. Languedoc-Roussillon;France;West Mediterranean;Ly-495;6440;230;Long;Conventional;Sediment;Bulk;Organic material;;;;Layer 14;L14;Mesolithic;Late;Castelnovian A;Late Mesolithic;62 BG1;4.42;44.27;Defranould et al. 2022;Defranould, E., Philibert, S., Perrin, T. 2022. Evolutionary dynamics of Armatures in Southern France in the Late Mesolithic and Early Neolithic. Open Archaeology 8: 905-924
3848;Baume Montclus;R. Languedoc-Roussillon;France;West Mediterranean;MC-729;6440;230;Long;Conventional;Charcoal;Bulk;n.d;;;;Layer 13;L13D;Mesolithic;Late;Castelnovian A;Late Mesolithic;156 BG1 / 1 BG2;4.42;44.27;Defranould et al. 2022;Defranould, E., Philibert, S., Perrin, T. 2022. Evolutionary dynamics of Armatures in Southern France in the Late Mesolithic and Early Neolithic. Open Archaeology 8: 905-924
3850;Baume Montclus;R. Languedoc-Roussillon;France;West Mediterranean;Ly-494;6230;150;Long;Conventional;Charcoal;Bulk;n.d;;;;Layer 8;L8;Mesolithic;Late;Castelnovian B;Late Mesolithic;14 BG1 / 1 BG2 / 4 GB3;4.42;44.27;Defranould et al. 2022;Defranould, E., Philibert, S., Perrin, T. 2022. Evolutionary dynamics of Armatures in Southern France in the Late Mesolithic and Early Neolithic. Open Archaeology 8: 905-924
3851;Baume Montclus;R. Languedoc-Roussillon;France;West Mediterranean;MC-728;6880;100;Long;Conventional;Charcoal;Bulk;n.d;;;;Layer 8;L8;Mesolithic;Late;Castelnovian A;Late Mesolithic;14 BG1 / 1 BG2 / 4 GB3;4.42;44.27;Defranould et al. 2022;Defranould, E., Philibert, S., Perrin, T. 2022. Evolutionary dynamics of Armatures in Southern France in the Late Mesolithic and Early Neolithic. Open Archaeology 8: 905-924
3852;Baume Montclus;R. Languedoc-Roussillon;France;West Mediterranean;MC-695;6440;100;Long;Conventional;Charcoal;Bulk;n.d;;;;Layer 5;L5;Mesolithic;;Mixed cultural horizons;Late Mesolithic;1 BG1 / 5 BG2 / 25 GB3;4.42;44.27;Defranould et al. 2022;Defranould, E., Philibert, S., Perrin, T. 2022. Evolutionary dynamics of Armatures in Southern France in the Late Mesolithic and Early Neolithic. Open Archaeology 8: 905-924
3867;Cuzoul de Gramat;R. Midi Pyrenées;France;West Mediterranean;Ly-14921;6780;45;Long;Conventional;Charcoal;n.d;n.d;;;;;SG5100;Mesolithic;;Indeterminate;Late Mesolithic;;1.7234;44.7811;Perrin et al. 2018;Perrin, T., Manen, C., Valdeyron, N., & Guilaine, J. (2018). Beyond the sea… The Neolithic transition in the southwest of France. Quaternary International, 470, 318-332. 
3868;Cuzoul de Gramat;R. Midi Pyrenées;France;West Mediterranean;Lyon-6705;6275;40;Long;Conventional;Charcoal;n.d;n.d;;;;;SP 2820;Mesolithic;;Indeterminate;Late Mesolithic;;1.7234;44.7811;Perrin et al. 2018;Perrin, T., Manen, C., Valdeyron, N., & Guilaine, J. (2018). Beyond the sea… The Neolithic transition in the southwest of France. Quaternary International, 470, 318-332. 
3869;Cuzoul de Gramat;R. Midi Pyrenées;France;West Mediterranean;Lyon-6706;7060;45;Long;Conventional;Charcoal;n.d;n.d;;;;;SG5100;Mesolithic;;Indeterminate;Late Mesolithic;;1.7234;44.7811;Perrin et al. 2018;Perrin, T., Manen, C., Valdeyron, N., & Guilaine, J. (2018). Beyond the sea… The Neolithic transition in the southwest of France. Quaternary International, 470, 318-332. 
3870;Cuzoul de Gramat;R. Midi Pyrenées;France;West Mediterranean;Lyon-5856;6980;40;Long;Conventional;Charcoal;n.d;n.d;;;;;Hearth F2c (HA2.3);Mesolithic;Late;Castelnovian n.d;Late Mesolithic;;1.7234;44.7811;Perrin et al. 2018;Perrin, T., Manen, C., Valdeyron, N., & Guilaine, J. (2018). Beyond the sea… The Neolithic transition in the southwest of France. Quaternary International, 470, 318-332. 
3871;Cuzoul de Gramat;R. Midi Pyrenées;France;West Mediterranean;Beta-428096;6920;30;Short;AMS;Bone;Singular;n.d;-20.9;;;;SG5311;Mesolithic;Late;Castelnovian n.d;Late Mesolithic;;1.7234;44.7811;Perrin et al. 2018;Perrin, T., Manen, C., Valdeyron, N., & Guilaine, J. (2018). Beyond the sea… The Neolithic transition in the southwest of France. Quaternary International, 470, 318-332. 
3872;Cuzoul de Gramat;R. Midi Pyrenées;France;West Mediterranean;Beta-428097;6220;30;Short;AMS;Bone;Singular;n.d;-21.2;;;1096 R30 D16;SC1900;Mesolithic;;Indeterminate;Late Mesolithic;;1.7234;44.7811;Perrin et al. 2018;Perrin, T., Manen, C., Valdeyron, N., & Guilaine, J. (2018). Beyond the sea… The Neolithic transition in the southwest of France. Quaternary International, 470, 318-332. 
3873;Cuzoul de Gramat;R. Midi Pyrenées;France;West Mediterranean;Beta-428098;6420;30;Short;AMS;Bone;Singular;Cervus elaphus;-20.2;;;1245 R32 D16;SC1900;Mesolithic;;Indeterminate;Late Mesolithic;;1.7234;44.7811;Perrin et al. 2018;Perrin, T., Manen, C., Valdeyron, N., & Guilaine, J. (2018). Beyond the sea… The Neolithic transition in the southwest of France. Quaternary International, 470, 318-332. 
3882;Roquemissou;R. Midi Pyrenées;France;West Mediterranean;Beta-363428;6630;40;Short;AMS;Bone;Singular;Sus sp.;-19.3;;;Level E;US 1101 (Fireplace);Mesolithic;Late;Castelnovian n.d;Late Mesolithic;Presence of trapezes;2.7246;44.4057;Perrin et al. 2018;Perrin, T., Manen, C., Valdeyron, N., & Guilaine, J. (2018). Beyond the sea… The Neolithic transition in the southwest of France. Quaternary International, 470, 318-332. 
3883;Roquemissou;R. Midi Pyrenées;France;West Mediterranean;Lyon-11260 SacA-37626;7150;35;Short;AMS;Seed / Fruit;Singular;Corylus avellana;;;;Level E;US 1040;Mesolithic;Late;Castelnovian n.d;Late Mesolithic;Presence of trapezes;2.7246;44.4057;Perrin et al. 2018;Perrin, T., Manen, C., Valdeyron, N., & Guilaine, J. (2018). Beyond the sea… The Neolithic transition in the southwest of France. Quaternary International, 470, 318-332. 
3884;Roquemissou;R. Midi Pyrenées;France;West Mediterranean;Beta-363427;7500;40;Short;AMS;Bone;Singular;Bos sp.;-21.3;;;Level E;US 1081;Mesolithic;Late;Castelnovian n.d;Late Mesolithic;Presence of trapezes;2.7246;44.4057;Perrin et al. 2018;Perrin, T., Manen, C., Valdeyron, N., & Guilaine, J. (2018). Beyond the sea… The Neolithic transition in the southwest of France. Quaternary International, 470, 318-332. 
3885;Roquemissou;R. Midi Pyrenées;France;West Mediterranean;Beta-398965;7140;30;Short;AMS;Bone;Singular;Capreolus capreolus;-22.3;;;Level E;US 5435;Mesolithic;Late;Castelnovian n.d;Late Mesolithic;Presence of trapezes;2.7246;44.4057;Perrin et al. 2018;Perrin, T., Manen, C., Valdeyron, N., & Guilaine, J. (2018). Beyond the sea… The Neolithic transition in the southwest of France. Quaternary International, 470, 318-332. 
3886;Roquemissou;R. Midi Pyrenées;France;West Mediterranean;Lyon-12839 SacA-45094;7545;40;Short;AMS;Bone;Singular;n.d;;;;Level E;US 1184;Mesolithic;Late;Castelnovian n.d;Late Mesolithic;Presence of trapezes;2.7246;44.4057;Perrin et al. 2018;Perrin, T., Manen, C., Valdeyron, N., & Guilaine, J. (2018). Beyond the sea… The Neolithic transition in the southwest of France. Quaternary International, 470, 318-332. 
3887;Roquemissou;R. Midi Pyrenées;France;West Mediterranean;Lyon-12841 SacA-45096;7000;45;Short;AMS;Bone;Singular;n.d;;;;Level E;US 1120;Mesolithic;Late;Castelnovian n.d;Late Mesolithic;Presence of trapezes;2.7246;44.4057;Perrin et al. 2018;Perrin, T., Manen, C., Valdeyron, N., & Guilaine, J. (2018). Beyond the sea… The Neolithic transition in the southwest of France. Quaternary International, 470, 318-332. 
